{"type": "FeatureCollection", "crs": {"type": "name", "properties": {"name": "EPSG:4326"}}, "features": [{"type": "Feature", "geometry": {"type": "Polygon", "coordinates": [[[-0.0323339030133425, 51.4929838217074], [-0.0307164794412767, 51.4907645092465], [-0.0298376385447867, 51.4895585301811], [-0.0293853732030738, 51.4889378858952], [-0.0294467073652078, 51.4885513238104], [-0.0294311926267493, 51.488554617784], [-0.0304070681582626, 51.4881410455197], [-0.0310865116573191, 51.4884033750229], [-0.0321908520420613, 51.488018244217], [-0.0327302019091302, 51.4886291142733], [-0.0330320365752254, 51.4885230922114], [-0.0343590717356437, 51.4880569388546], [-0.0330983623956253, 51.4868936853488], [-0.0339996760900107, 51.4864655151271], [-0.0341720441447961, 51.486363531787], [-0.0357514339745833, 51.4879205992752], [-0.0360791189491597, 51.4885893804983], [-0.0366975344515792, 51.4883978340824], [-0.0377609948009487, 51.4876643071574], [-0.0393418603799837, 51.4884360442064], [-0.0396957767563844, 51.4881908293674], [-0.0391202172151769, 51.4876150433905], [-0.0396371109750796, 51.4867553821677], [-0.0409257878765867, 51.4874300056158], [-0.0418712483494296, 51.4872114705266], [-0.041299884641366, 51.4851487107744], [-0.0412720611200084, 51.485061147706], [-0.0421857678307205, 51.4849145442605], [-0.042470647975321, 51.484316779253], [-0.0435061722426114, 51.484289536142], [-0.0437186104000199, 51.485408819605], [-0.0502230709896301, 51.4880745179547], [-0.0500277356123277, 51.4883115433215], [-0.0519342351594823, 51.4891356008087], [-0.0501204801365986, 51.4897817826809], [-0.0499242860892972, 51.4898144545886], [-0.0492342958166574, 51.4900425224831], [-0.0486969132034842, 51.4901008606819], [-0.0486125219310121, 51.4901202200479], [-0.0465469656249646, 51.4907437179285], [-0.0465392754937917, 51.4903427408813], [-0.0458062170348152, 51.4901627973597], [-0.0447674009127437, 51.4904366013655], [-0.0445428583384376, 51.4901397640498], [-0.0422011753309691, 51.4900365333072], [-0.0424784582000581, 51.4902416959514], [-0.0424148111271561, 51.4902652031624], [-0.0403179817744065, 51.4910627561796], [-0.041028406038379, 51.4918284510607], [-0.0400519859702716, 51.4921730755081], [-0.0405210359823842, 51.4927838185344], [-0.0388816264821484, 51.492850585029], [-0.0381008136034535, 51.4924045634859], [-0.0379712799537503, 51.4923454628259], [-0.0373250931339811, 51.4922221786056], [-0.0372536299632317, 51.4922274476371], [-0.0345801139013213, 51.4927603072077], [-0.0323671623177174, 51.4930294553181], [-0.0323339030133425, 51.4929838217074]]]}, "properties": {"MSOA21CD": "E02000653", "MSOA21NM": "Lewisham 001"}}, {"type": "Feature", "geometry": {"type": "Polygon", "coordinates": [[[-0.0291072488924238, 51.4886234030645], [-0.0275537430187608, 51.4872218002693], [-0.0274754536174855, 51.4871734010118], [-0.0272309705540143, 51.4870222595284], [-0.0248215319366139, 51.4855326405429], [-0.0247131909248187, 51.4854828066467], [-0.024677060839697, 51.4854661875552], [-0.0252038114772304, 51.4848637986972], [-0.0255529216230077, 51.4834348738554], [-0.0261397153229961, 51.4817450407142], [-0.0263830144763728, 51.4815103951645], [-0.0256154691830981, 51.4813681116384], [-0.0247655555333942, 51.4812106576283], [-0.0231467398255134, 51.4807397581913], [-0.0230454954338803, 51.4796285515317], [-0.0230250796069056, 51.4792883825843], [-0.0229004478273948, 51.4785069922118], [-0.0260847900923868, 51.4788405595163], [-0.0269597428045631, 51.4790861357905], [-0.0281055308060605, 51.4794712863711], [-0.0287605216321082, 51.4797081648235], [-0.0299179356448476, 51.480112316497], [-0.0304415157722607, 51.4803050280202], [-0.031044199435859, 51.4805328869062], [-0.0346288350763844, 51.4792424127218], [-0.0349862654225512, 51.4797866562137], [-0.0357166578085934, 51.4808868456381], [-0.0361521068165027, 51.4814516011877], [-0.0370365757008797, 51.4820510801262], [-0.0387916742602404, 51.4822416557912], [-0.0416597660779007, 51.4827794568465], [-0.0433887416764531, 51.4840733682999], [-0.0435061722426114, 51.484289536142], [-0.042470647975321, 51.484316779253], [-0.0421857678307205, 51.4849145442605], [-0.0412720611200084, 51.485061147706], [-0.041299884641366, 51.4851487107744], [-0.0418712483494296, 51.4872114705266], [-0.0409257878765867, 51.4874300056158], [-0.0396371109750796, 51.4867553821677], [-0.0391202172151769, 51.4876150433905], [-0.0396957767563844, 51.4881908293674], [-0.0393418603799837, 51.4884360442064], [-0.0377609948009487, 51.4876643071574], [-0.0366975344515792, 51.4883978340824], [-0.0360791189491597, 51.4885893804983], [-0.0357514339745833, 51.4879205992752], [-0.0341720441447961, 51.486363531787], [-0.0339996760900107, 51.4864655151271], [-0.0330983623956253, 51.4868936853488], [-0.0343590717356437, 51.4880569388546], [-0.0330320365752254, 51.4885230922114], [-0.0327302019091302, 51.4886291142733], [-0.0321908520420613, 51.488018244217], [-0.0310865116573191, 51.4884033750229], [-0.0304070681582626, 51.4881410455197], [-0.0294311926267493, 51.488554617784], [-0.0291072488924238, 51.4886234030645]]]}, "properties": {"MSOA21CD": "E02000654", "MSOA21NM": "Lewisham 002"}}, {"type": "Feature", "geometry": {"type": "Polygon", "coordinates": [[[-0.0502230709896301, 51.4880745179547], [-0.0437186104000199, 51.485408819605], [-0.0435061722426114, 51.484289536142], [-0.0433887416764531, 51.4840733682999], [-0.045983914327117, 51.484006705157], [-0.0440296090631256, 51.4815460187833], [-0.0427070911789619, 51.4816270850619], [-0.042656616482685, 51.4797752594386], [-0.0419644207428209, 51.4803334588585], [-0.0421452539381107, 51.4811548346754], [-0.041606014346716, 51.4812402584896], [-0.04139003547975, 51.4808848553244], [-0.0410579509164869, 51.4800490971794], [-0.0404499875250358, 51.4800395967868], [-0.0407306975289893, 51.4797850798914], [-0.040272520263655, 51.4790174365455], [-0.0396910604245653, 51.4786047834346], [-0.0402719721889011, 51.4781558616194], [-0.0400634310827469, 51.4779815084643], [-0.0396814220845217, 51.4780587344965], [-0.0387320991885163, 51.4772294492818], [-0.0379036209256443, 51.4773180181121], [-0.0373268044237732, 51.4767531814777], [-0.0369844285194921, 51.4762386891892], [-0.0387955407724666, 51.4759818539024], [-0.0392128592620847, 51.4759888378099], [-0.0394897449059369, 51.4759125344928], [-0.039604955628937, 51.4762870025043], [-0.0409792434098128, 51.4757371647446], [-0.0405917516095823, 51.4748217403919], [-0.0430120016789912, 51.4743385568293], [-0.0454135643043657, 51.4742947430985], [-0.045953702377364, 51.4743100270324], [-0.0459945261172446, 51.4743305209548], [-0.0468219245172362, 51.4752436047958], [-0.0468714260507467, 51.475325671684], [-0.0489113164044949, 51.4765008631591], [-0.0500728620756924, 51.4769958673648], [-0.0503872150298426, 51.4771225030024], [-0.0523358501623111, 51.4778806831068], [-0.0526752947615208, 51.4780086138781], [-0.0543030269236447, 51.4786065164795], [-0.0539941156999438, 51.4791027383926], [-0.0533856206917594, 51.4803218828588], [-0.0534679807685467, 51.4804623998064], [-0.0533212375818721, 51.4807998438186], [-0.0528315597580035, 51.4826868845899], [-0.0530080202176117, 51.4845688908256], [-0.0531615072390648, 51.485080043167], [-0.0535133308148773, 51.4857758931468], [-0.0530093748131194, 51.4858579989537], [-0.0528657297367803, 51.4866631101746], [-0.0539897804584447, 51.4879696233834], [-0.0525480744704112, 51.4875481497276], [-0.052115480888079, 51.4878206526007], [-0.050572467125238, 51.4878328554498], [-0.0502230709896301, 51.4880745179547]]]}, "properties": {"MSOA21CD": "E02000655", "MSOA21NM": "Lewisham 003"}}, {"type": "Feature", "geometry": {"type": "Polygon", "coordinates": [[[-0.0227841836703055, 51.4743124059668], [-0.022647084764224, 51.4739851164724], [-0.021681580219967, 51.4739944874476], [-0.0218783403192511, 51.4735474625395], [-0.0227943898616077, 51.4733895831083], [-0.0234645820359684, 51.4728359902988], [-0.023792935111216, 51.4726891609949], [-0.0241915629873043, 51.4724219315227], [-0.0261880189355126, 51.4734769875699], [-0.0255702526315475, 51.4725918594609], [-0.0243990277243943, 51.4722238081803], [-0.0255115857843352, 51.4714691680349], [-0.0255415278462831, 51.4714426937744], [-0.0263019109093606, 51.4709243628624], [-0.0265502234879857, 51.4707582367445], [-0.0280492078147322, 51.4697223048151], [-0.0278877026538545, 51.4695910875104], [-0.0287035542137731, 51.4689059648612], [-0.029365131947172, 51.4679279347792], [-0.0299196127152743, 51.4680692799237], [-0.0299342540745491, 51.4685944516305], [-0.0304205709742004, 51.4681967210552], [-0.0313626552597693, 51.4665307396103], [-0.0320525074822954, 51.4661631301165], [-0.0328215275815295, 51.4661757253616], [-0.0331368155964535, 51.4666064083764], [-0.0334643938291107, 51.4660092903963], [-0.0353988108338393, 51.4658888548623], [-0.0359290908356181, 51.4656099722697], [-0.0357178623485204, 51.4651874332409], [-0.0341742105435215, 51.465296549202], [-0.0339261442980349, 51.4648056738355], [-0.0364739132577227, 51.464656862485], [-0.0365109212791082, 51.4651167778], [-0.0375350637488431, 51.4651064328161], [-0.0375072775736625, 51.4654074943422], [-0.0375832855912444, 51.4676465477505], [-0.0377539541838013, 51.4687591748383], [-0.0379039513079242, 51.469441135116], [-0.0383643686407971, 51.4708873279283], [-0.0390232291277098, 51.4724526467047], [-0.0392085679705748, 51.4728198083806], [-0.0402486289185602, 51.4749009905979], [-0.036368916329434, 51.4756833514442], [-0.0341365233340043, 51.4758329491888], [-0.0325456151728052, 51.475896321968], [-0.0322621576165657, 51.4758728484797], [-0.0287442020800351, 51.4753588818867], [-0.0281119951105693, 51.4752497914768], [-0.0262960067859511, 51.4749720581131], [-0.0261809934379031, 51.4749561208679], [-0.0235014629709992, 51.4745535654024], [-0.0227784507468356, 51.474464091358], [-0.0227841836703055, 51.4743124059668]]]}, "properties": {"MSOA21CD": "E02000657", "MSOA21NM": "Lewisham 005"}}, {"type": "Feature", "geometry": {"type": "Polygon", "coordinates": [[[-0.045953702377364, 51.4743100270324], [-0.0454135643043657, 51.4742947430985], [-0.0430120016789912, 51.4743385568293], [-0.0405917516095823, 51.4748217403919], [-0.0402486289185602, 51.4749009905979], [-0.0392085679705748, 51.4728198083806], [-0.0390232291277098, 51.4724526467047], [-0.0383643686407971, 51.4708873279283], [-0.0398877761876844, 51.4708957450926], [-0.0405785687296275, 51.4702184152215], [-0.0412904967151465, 51.4705199263492], [-0.0421478994997211, 51.4697631684122], [-0.0428883348771222, 51.4700957490237], [-0.0432736530644738, 51.4699570839649], [-0.0437625676694624, 51.468286610409], [-0.0440060935847686, 51.4682990701277], [-0.0444635650325092, 51.4681187636392], [-0.044233371138184, 51.466356511785], [-0.0455072465014187, 51.4663580712209], [-0.0463009159326165, 51.4657373215401], [-0.0481621942674744, 51.4661077087807], [-0.0483442601296526, 51.4659383928347], [-0.0489919776211946, 51.466215410694], [-0.0509291292711048, 51.466619785398], [-0.0505999342431807, 51.4667476885123], [-0.0512872830864886, 51.467368922726], [-0.050921427658897, 51.4675579640355], [-0.0522570583181134, 51.4692139944979], [-0.0517224851602085, 51.4696546251159], [-0.0516936900016532, 51.4697160263605], [-0.0522588684253751, 51.4714330735361], [-0.052286839735214, 51.4715227965105], [-0.0526088304916185, 51.4725400928421], [-0.0527313432878096, 51.4729688953188], [-0.0527348588729235, 51.4733542394425], [-0.0527361074038281, 51.4735901794818], [-0.0527289328707079, 51.4752413205728], [-0.0527282509155128, 51.4753856125947], [-0.0527265697259951, 51.4755865432907], [-0.0527232994280177, 51.4760761216292], [-0.0527127885886712, 51.4766278140403], [-0.0526752947615208, 51.4780086138781], [-0.0523358501623111, 51.4778806831068], [-0.0503872150298426, 51.4771225030024], [-0.0500728620756924, 51.4769958673648], [-0.0489113164044949, 51.4765008631591], [-0.0468714260507467, 51.475325671684], [-0.0468219245172362, 51.4752436047958], [-0.0459945261172446, 51.4743305209548], [-0.045953702377364, 51.4743100270324]]]}, "properties": {"MSOA21CD": "E02000658", "MSOA21NM": "Lewisham 006"}}, {"type": "Feature", "geometry": {"type": "Polygon", "coordinates": [[[-0.00546333386951475, 51.4723670746414], [-0.00220116971053377, 51.4719025897317], [-0.00222116273513445, 51.4699864982681], [-0.00138367238831703, 51.4697114364346], [-8.08289914182012e-05, 51.4692126104787], [0.000331452218590281, 51.4677757164716], [0.000630661582633205, 51.4673381923461], [0.00208763935607953, 51.4670363287074], [0.00240937670625044, 51.4664252508537], [0.00152237124493525, 51.4662843716974], [0.00146747035784025, 51.4658952892239], [0.000831508472211099, 51.4659258952973], [0.00121770194560627, 51.4653511404247], [0.00244400297211759, 51.4654293760793], [0.00286996008283427, 51.4652660533512], [0.00249527282037217, 51.4645476184937], [0.00065881686016593, 51.4643403643731], [0.00144175859583455, 51.4632064024802], [0.00169440025593575, 51.4627600757874], [0.00210552858922806, 51.4627856317353], [0.00222974460702007, 51.4620224207219], [0.0030363103173548, 51.461198018586], [0.0031843168813767, 51.4610750681037], [0.00108362541078138, 51.4606135818245], [0.00129899080626666, 51.4601749150705], [-0.000635850521442187, 51.4599980425744], [-0.000782624003769511, 51.46003140752], [-0.00088934048831309, 51.4603450619403], [0.00108624005803925, 51.4606195489361], [0.0002943999065575, 51.4621467511728], [-0.0018364743063321, 51.4615918697428], [-0.00290684160318783, 51.4618420168953], [-0.00337052958998468, 51.46194650365], [-0.00493368701968231, 51.4620561800385], [-0.00498248292625748, 51.462074501152], [-0.00649488369341648, 51.4624238933855], [-0.00754036831962585, 51.4625755482083], [-0.00846279513710459, 51.4622348320889], [-0.0101859301844169, 51.462731218105], [-0.0105464350988663, 51.4633010138825], [-0.0111271533374215, 51.4643467776035], [-0.0112230697041404, 51.4650135693542], [-0.0110877211072616, 51.4653903344393], [-0.0109487987929431, 51.4659871692725], [-0.012107501585367, 51.4679480920214], [-0.0122878428998446, 51.4681192221853], [-0.013104583069785, 51.4689358176637], [-0.0136193927645091, 51.469573430886], [-0.0140140778127904, 51.4700406132352], [-0.0144683878570742, 51.4707878728742], [-0.0147783842812095, 51.4713028288356], [-0.0151198807294138, 51.4717297057832], [-0.0145074570278257, 51.4719038049711], [-0.0140513116309381, 51.4726384165525], [-0.0134110515655911, 51.4723991347564], [-0.0123256762850402, 51.4723502030834], [-0.0120810505887305, 51.4723752923238], [-0.0083222253375733, 51.4726852746021], [-0.00767952658243239, 51.4726328785279], [-0.00546333386951475, 51.4723670746414]]]}, "properties": {"MSOA21CD": "E02000659", "MSOA21NM": "Lewisham 007"}}, {"type": "Feature", "geometry": {"type": "Polygon", "coordinates": [[[-0.0199526881427608, 51.4729213131862], [-0.0202540376174987, 51.4722497698597], [-0.0192761134327962, 51.4719608780238], [-0.0192434909830358, 51.471881674808], [-0.0192234283428616, 51.4718090328483], [-0.0188173367451883, 51.4711260000281], [-0.0190934358206318, 51.4699475725561], [-0.0178588230495722, 51.4694782547592], [-0.0171150966727097, 51.4692979061189], [-0.0199649336735992, 51.4683106341401], [-0.0198324807156523, 51.4680527218716], [-0.0207412082440298, 51.4680192135026], [-0.0228075137022224, 51.467482259024], [-0.0231512329814364, 51.4675933694714], [-0.0231772590826187, 51.4676039092915], [-0.0231782736322202, 51.4676043202933], [-0.0231782957568241, 51.4676042748027], [-0.0231789970561453, 51.4676028405721], [-0.0244423354367462, 51.4650198324201], [-0.0244948511199201, 51.4648252842436], [-0.024786498438701, 51.4630692397178], [-0.025428750064218, 51.4631602623214], [-0.0269723499331215, 51.4632291495669], [-0.0280332235687011, 51.4628502180618], [-0.0283703694608002, 51.4628850087266], [-0.0296040538993752, 51.4632676034083], [-0.0305722418548291, 51.4624378570423], [-0.032406962976848, 51.4613380235806], [-0.0341379576396486, 51.4610435347442], [-0.0344225645460684, 51.4607100497361], [-0.0349350481846404, 51.4611621157633], [-0.0353816162820439, 51.4609892521114], [-0.0365993458109689, 51.4615962506757], [-0.0371151788158579, 51.4612462260271], [-0.0383738842457147, 51.461750254474], [-0.0375350637488431, 51.4651064328161], [-0.0365109212791082, 51.4651167778], [-0.0364739132577227, 51.464656862485], [-0.0339261442980349, 51.4648056738355], [-0.0341742105435215, 51.465296549202], [-0.0357178623485204, 51.4651874332409], [-0.0359290908356181, 51.4656099722697], [-0.0353988108338393, 51.4658888548623], [-0.0334643938291107, 51.4660092903963], [-0.0331368155964535, 51.4666064083764], [-0.0328215275815295, 51.4661757253616], [-0.0320525074822954, 51.4661631301165], [-0.0313626552597693, 51.4665307396103], [-0.0304205709742004, 51.4681967210552], [-0.0299342540745491, 51.4685944516305], [-0.0299196127152743, 51.4680692799237], [-0.029365131947172, 51.4679279347792], [-0.0287035542137731, 51.4689059648612], [-0.0278877026538545, 51.4695910875104], [-0.0280492078147322, 51.4697223048151], [-0.0265502234879857, 51.4707582367445], [-0.0263019109093606, 51.4709243628624], [-0.0255415278462831, 51.4714426937744], [-0.0255115857843352, 51.4714691680349], [-0.0243990277243943, 51.4722238081803], [-0.0255702526315475, 51.4725918594609], [-0.0261880189355126, 51.4734769875699], [-0.0241915629873043, 51.4724219315227], [-0.023792935111216, 51.4726891609949], [-0.0234645820359684, 51.4728359902988], [-0.0227943898616077, 51.4733895831083], [-0.0218783403192511, 51.4735474625395], [-0.021681580219967, 51.4739944874476], [-0.0209587181636223, 51.4736187807547], [-0.0208153350972251, 51.4735234627339], [-0.0207111441421246, 51.4733545881116], [-0.0203334812053027, 51.4731726767714], [-0.0199526881427608, 51.4729213131862]]]}, "properties": {"MSOA21CD": "E02000660", "MSOA21NM": "Lewisham 008"}}, {"type": "Feature", "geometry": {"type": "Polygon", "coordinates": [[[0.0149291433864935, 51.4726980392099], [0.016242786604268, 51.4700332095997], [0.0166751473315303, 51.4694945408694], [0.0163678938426194, 51.469054200938], [0.0135748741103722, 51.4698808152536], [0.0126353102656133, 51.4697784406335], [0.0130698738096399, 51.4684570934583], [0.0128167673097478, 51.4676798864625], [0.013301370153377, 51.4668356784701], [0.0121613157273488, 51.4665243927186], [0.00996718968224173, 51.4660070579778], [0.00979272581256532, 51.4659796225763], [0.00914036346819539, 51.4658776424137], [0.00913482647898761, 51.4645849267993], [0.00934464987694845, 51.464030195956], [0.00987362857701806, 51.4615039456622], [0.00985707127705909, 51.4607329436683], [0.0100768283610609, 51.4592476518381], [0.010102767150551, 51.4591608238707], [0.0114080650972792, 51.4566758186865], [0.00971536391205225, 51.456628293361], [0.00952689954538257, 51.456720830102], [0.00813981891978717, 51.4579919476899], [0.0066956486278158, 51.4585917369618], [0.00611647307604637, 51.458664257779], [0.00589315154582561, 51.4586735713813], [0.00303473485470059, 51.4586150944122], [0.00191757897457394, 51.4586114652871], [-0.000390349138702979, 51.4585940108749], [-0.00177618287085078, 51.4586937470541], [-0.00312814346035374, 51.4591029501036], [-0.00375683895338505, 51.459601298172], [-0.00211990872451524, 51.4601123220945], [-0.00198441387660888, 51.4601489367913], [-0.00088934048831309, 51.4603450619403], [-0.000782624003769511, 51.46003140752], [-0.000635850521442187, 51.4599980425744], [0.00129899080626666, 51.4601749150705], [0.00108362541078138, 51.4606135818245], [0.0031843168813767, 51.4610750681037], [0.0030363103173548, 51.461198018586], [0.00222974460702007, 51.4620224207219], [0.00210552858922806, 51.4627856317353], [0.00169440025593575, 51.4627600757874], [0.00144175859583455, 51.4632064024802], [0.00065881686016593, 51.4643403643731], [0.00249527282037217, 51.4645476184937], [0.00286996008283427, 51.4652660533512], [0.00244400297211759, 51.4654293760793], [0.00121770194560627, 51.4653511404247], [0.000831508472211099, 51.4659258952973], [0.00146747035784025, 51.4658952892239], [0.00152237124493525, 51.4662843716974], [0.00240937670625044, 51.4664252508537], [0.00208763935607953, 51.4670363287074], [0.000630661582633205, 51.4673381923461], [0.000331452218590281, 51.4677757164716], [-8.08289914182012e-05, 51.4692126104787], [-0.00138367238831703, 51.4697114364346], [-0.00222116273513445, 51.4699864982681], [-0.00220116971053377, 51.4719025897317], [-0.00066695578276179, 51.4718090731054], [0.0121156519577685, 51.4731737142464], [0.0162890010506743, 51.4736718514092], [0.0183493779348543, 51.4739131870418], [0.0156254341670707, 51.4732586948447], [0.0149360142443901, 51.4730931114045], [0.0149291433864935, 51.4726980392099]]]}, "properties": {"MSOA21CD": "E02000661", "MSOA21NM": "Lewisham 009"}}, {"type": "Feature", "geometry": {"type": "Polygon", "coordinates": [[[-0.0383643686407971, 51.4708873279283], [-0.0379039513079242, 51.469441135116], [-0.0377539541838013, 51.4687591748383], [-0.0375832855912444, 51.4676465477505], [-0.0375072775736625, 51.4654074943422], [-0.0375350637488431, 51.4651064328161], [-0.0383738842457147, 51.461750254474], [-0.0386539685223836, 51.4610456184663], [-0.0390354446290876, 51.460085787239], [-0.0391936260449319, 51.4596852912836], [-0.0396247367981024, 51.4585424093073], [-0.0399014479439951, 51.4578096228558], [-0.0405402640599908, 51.4561340131798], [-0.0412649194620846, 51.4548926814605], [-0.041622761821125, 51.4549898607954], [-0.044724507418372, 51.4566043032802], [-0.0461373517912601, 51.4569576354197], [-0.0454111567965441, 51.4586852913888], [-0.0452135096686921, 51.4594317955174], [-0.0451797357680519, 51.459748410119], [-0.0451859274534338, 51.4611313970806], [-0.0452398334071038, 51.4618989337568], [-0.045290552908521, 51.4622253411876], [-0.0461840643754711, 51.4641009527025], [-0.0471241422686368, 51.4648794272401], [-0.0485845771249051, 51.465580737353], [-0.0483442601296526, 51.4659383928347], [-0.0481621942674744, 51.4661077087807], [-0.0463009159326165, 51.4657373215401], [-0.0455072465014187, 51.4663580712209], [-0.044233371138184, 51.466356511785], [-0.0444635650325092, 51.4681187636392], [-0.0440060935847686, 51.4682990701277], [-0.0437625676694624, 51.468286610409], [-0.0432736530644738, 51.4699570839649], [-0.0428883348771222, 51.4700957490237], [-0.0421478994997211, 51.4697631684122], [-0.0412904967151465, 51.4705199263492], [-0.0405785687296275, 51.4702184152215], [-0.0398877761876844, 51.4708957450926], [-0.0383643686407971, 51.4708873279283]]]}, "properties": {"MSOA21CD": "E02000662", "MSOA21NM": "Lewisham 010"}}, {"type": "Feature", "geometry": {"type": "Polygon", "coordinates": [[[-0.0191504046006723, 51.4675650666603], [-0.0178078867152323, 51.4659819038568], [-0.0174678791864529, 51.4650773418424], [-0.0170613571254411, 51.4638273283502], [-0.0169560772667698, 51.4635001334585], [-0.0169333304146466, 51.4634294417444], [-0.0165408056317665, 51.4622395141808], [-0.0161253139435632, 51.4602506033637], [-0.0164706551487933, 51.4594187855763], [-0.0168955359233366, 51.4589461736592], [-0.018820976725418, 51.4565837052753], [-0.019804838799775, 51.4566155716947], [-0.0202202815194838, 51.4571644983314], [-0.0210403820436112, 51.458041057996], [-0.0233589211688232, 51.4581806898382], [-0.023802683230368, 51.4585577967023], [-0.0244498741466541, 51.4584459799254], [-0.0250162267222007, 51.4585574754962], [-0.0248033402345581, 51.4592866736721], [-0.0244447231497638, 51.460077067638], [-0.0270635337336607, 51.4604867002549], [-0.0264808358048555, 51.4610597566513], [-0.0252617966516566, 51.4610264648946], [-0.0247572893341706, 51.4623217892997], [-0.0248758221110122, 51.4623029142342], [-0.0264731251131207, 51.4625374290399], [-0.0290480726332497, 51.4619152720288], [-0.0291021512101962, 51.4618295797046], [-0.0312476829803665, 51.4602648353313], [-0.0316754626231411, 51.4604427768165], [-0.0320920249267247, 51.4602337162906], [-0.0323464871707859, 51.4604865611849], [-0.0319291964167632, 51.4609306760894], [-0.032406962976848, 51.4613380235806], [-0.0305722418548291, 51.4624378570423], [-0.0296040538993752, 51.4632676034083], [-0.0283703694608002, 51.4628850087266], [-0.0280332235687011, 51.4628502180618], [-0.0269723499331215, 51.4632291495669], [-0.025428750064218, 51.4631602623214], [-0.024786498438701, 51.4630692397178], [-0.0244948511199201, 51.4648252842436], [-0.0244423354367462, 51.4650198324201], [-0.0231789970561453, 51.4676028405721], [-0.0231782957568241, 51.4676042748027], [-0.0231782736322202, 51.4676043202933], [-0.0231772590826187, 51.4676039092915], [-0.0231512329814364, 51.4675933694714], [-0.0228075137022224, 51.467482259024], [-0.0207412082440298, 51.4680192135026], [-0.0198324807156523, 51.4680527218716], [-0.0191504046006723, 51.4675650666603]]]}, "properties": {"MSOA21CD": "E02000663", "MSOA21NM": "Lewisham 011"}}, {"type": "Feature", "geometry": {"type": "Polygon", "coordinates": [[[-0.00177618287085078, 51.4586937470541], [-0.000390349138702979, 51.4585940108749], [0.00191757897457394, 51.4586114652871], [0.00303473485470059, 51.4586150944122], [0.00589315154582561, 51.4586735713813], [0.00611647307604637, 51.458664257779], [0.0066956486278158, 51.4585917369618], [0.00813981891978717, 51.4579919476899], [0.00952689954538257, 51.456720830102], [0.00971536391205225, 51.456628293361], [0.0114080650972792, 51.4566758186865], [0.0132342042268671, 51.4559749104148], [0.0146258054612984, 51.4556200452245], [0.0147548780868283, 51.4555928911685], [0.0169014792389195, 51.4551760230697], [0.0175060043181993, 51.4550499598719], [0.0174797857562428, 51.4542545427728], [0.0181263150513048, 51.4525838771972], [0.0183969539513594, 51.4515947352566], [0.0163375267158038, 51.4512706416157], [0.0156780505914103, 51.4529126528675], [0.0150503201275359, 51.4528294908395], [0.0142406109163616, 51.4527176920517], [0.0139232888549992, 51.453712160812], [0.0136320124506352, 51.4546164470647], [0.012676803970674, 51.4544979478534], [0.0118041559307427, 51.4551584337918], [0.0117160711335081, 51.4542536266642], [0.0106674763600866, 51.4542170997967], [0.00878974830999145, 51.4540658529705], [0.00831423064027375, 51.4540191209341], [0.00837569305392911, 51.453667122582], [0.00547103412124769, 51.4533789667791], [0.00502946593424228, 51.4540187036188], [0.00450526098708418, 51.4539634717564], [0.00437092273671692, 51.4542296983911], [0.00387626933656546, 51.4541801188436], [0.00386136908649574, 51.4537276105413], [0.00237504297789486, 51.4539668779869], [0.00204682391825195, 51.4536726589051], [0.000971808989418955, 51.4541046727046], [0.000453168914997218, 51.4537459344611], [0.000391557425711599, 51.4534561853923], [-0.000236935051510075, 51.4529036529563], [0.00260780855478546, 51.4518319684189], [0.00179003078210059, 51.4515605211797], [-0.000737117433248658, 51.4526060717079], [-0.0011143402776958, 51.4518476105722], [-0.0024758720646853, 51.4530782867537], [-0.00278367385193995, 51.4533099051115], [-0.00558539342832868, 51.4550092219703], [-0.00669312839831933, 51.4555786843559], [-0.00886351502751631, 51.4566992676052], [-0.00843539425652037, 51.4566684827244], [-0.00838183930955682, 51.4577993271513], [-0.00685072157107972, 51.4580279370864], [-0.00683321603199789, 51.4580325946615], [-0.0059285460103244, 51.4585246925174], [-0.00535320449041858, 51.4586383524261], [-0.00514577650055334, 51.4582788269862], [-0.00475747816388347, 51.4583143266389], [-0.00345234576095472, 51.4589447635612], [-0.00312814346035374, 51.4591029501036], [-0.00177618287085078, 51.4586937470541]]]}, "properties": {"MSOA21CD": "E02000665", "MSOA21NM": "Lewisham 013"}}, {"type": "Feature", "geometry": {"type": "Polygon", "coordinates": [[[-0.0264731251131207, 51.4625374290399], [-0.0248758221110122, 51.4623029142342], [-0.0247572893341706, 51.4623217892997], [-0.0252617966516566, 51.4610264648946], [-0.0264808358048555, 51.4610597566513], [-0.0270635337336607, 51.4604867002549], [-0.0244447231497638, 51.460077067638], [-0.0248033402345581, 51.4592866736721], [-0.0250162267222007, 51.4585574754962], [-0.0244498741466541, 51.4584459799254], [-0.023802683230368, 51.4585577967023], [-0.0233589211688232, 51.4581806898382], [-0.0210403820436112, 51.458041057996], [-0.0202202815194838, 51.4571644983314], [-0.019804838799775, 51.4566155716947], [-0.018820976725418, 51.4565837052753], [-0.0196038618241909, 51.4554553172879], [-0.0197687605063509, 51.4552114556821], [-0.0220148683382623, 51.4520317623121], [-0.0230738753289467, 51.4519147000393], [-0.0258470851777003, 51.449957507373], [-0.0267438737921177, 51.450912335747], [-0.0278628098914947, 51.4517520808841], [-0.0302179337718158, 51.4528239418076], [-0.0302241153631687, 51.4528251194215], [-0.031518290797011, 51.4532559797589], [-0.0334743715448772, 51.4539158786272], [-0.0316090551348761, 51.4552586035542], [-0.0346482618599534, 51.4560649541472], [-0.0356966262073358, 51.4563169695963], [-0.0360478461667481, 51.4564048371766], [-0.0354394876263614, 51.4571334045079], [-0.0345748022843625, 51.4578125456887], [-0.0340183656580431, 51.4585161631162], [-0.0376101357890491, 51.4593310869517], [-0.0380514057047585, 51.4594311837236], [-0.0391936260449319, 51.4596852912836], [-0.0390354446290876, 51.460085787239], [-0.0386539685223836, 51.4610456184663], [-0.0383738842457147, 51.461750254474], [-0.0371151788158579, 51.4612462260271], [-0.0365993458109689, 51.4615962506757], [-0.0353816162820439, 51.4609892521114], [-0.0349350481846404, 51.4611621157633], [-0.0344225645460684, 51.4607100497361], [-0.0341379576396486, 51.4610435347442], [-0.032406962976848, 51.4613380235806], [-0.0319291964167632, 51.4609306760894], [-0.0323464871707859, 51.4604865611849], [-0.0320920249267247, 51.4602337162906], [-0.0316754626231411, 51.4604427768165], [-0.0312476829803665, 51.4602648353313], [-0.0291021512101962, 51.4618295797046], [-0.0290480726332497, 51.4619152720288], [-0.0264731251131207, 51.4625374290399]]]}, "properties": {"MSOA21CD": "E02000666", "MSOA21NM": "Lewisham 014"}}, {"type": "Feature", "geometry": {"type": "Polygon", "coordinates": [[[-0.0316090551348761, 51.4552586035542], [-0.0334743715448772, 51.4539158786272], [-0.031518290797011, 51.4532559797589], [-0.0302241153631687, 51.4528251194215], [-0.0302179337718158, 51.4528239418076], [-0.0278628098914947, 51.4517520808841], [-0.0267438737921177, 51.450912335747], [-0.0258470851777003, 51.449957507373], [-0.0256037928756551, 51.4495714929568], [-0.0260741629743202, 51.4494685491976], [-0.0280793080291344, 51.4485348480073], [-0.0286706173207033, 51.4488105127473], [-0.0297803319207546, 51.4487762070987], [-0.0296720246321681, 51.4483654724871], [-0.0303481192287033, 51.4483401865282], [-0.0317958176946764, 51.4480075711676], [-0.0332759211656524, 51.4465636654529], [-0.0352597784679267, 51.4472724571124], [-0.0334157280589243, 51.4482436488607], [-0.033219876624883, 51.4487985870862], [-0.0337864176789767, 51.4490036484358], [-0.0344807444788264, 51.4490241663676], [-0.033536281069937, 51.4501775552327], [-0.0339770195106349, 51.4502906669118], [-0.0331693271175665, 51.4512721302958], [-0.0335948563402321, 51.4514223076715], [-0.0342253527360206, 51.4507553658809], [-0.0345397692637156, 51.4509039393272], [-0.0343003363300375, 51.4513757310986], [-0.0366760601883325, 51.4501911858163], [-0.0372310401236476, 51.4506242476234], [-0.0388231665873483, 51.4505368352917], [-0.0391111752012909, 51.4519067804688], [-0.0397857163968545, 51.4512049665417], [-0.0402999961996168, 51.4513182027137], [-0.0408428700654354, 51.4503384579885], [-0.0432192268886209, 51.4508645539367], [-0.0420438610039112, 51.4519808745991], [-0.0422422754703904, 51.4522860240431], [-0.0417921817357845, 51.4527493302265], [-0.0421604984738625, 51.4535828067755], [-0.0424572582651734, 51.4538433630841], [-0.041622761821125, 51.4549898607954], [-0.0412649194620846, 51.4548926814605], [-0.0405402640599908, 51.4561340131798], [-0.0399014479439951, 51.4578096228558], [-0.0396247367981024, 51.4585424093073], [-0.0391936260449319, 51.4596852912836], [-0.0380514057047585, 51.4594311837236], [-0.0376101357890491, 51.4593310869517], [-0.0340183656580431, 51.4585161631162], [-0.0345748022843625, 51.4578125456887], [-0.0354394876263614, 51.4571334045079], [-0.0360478461667481, 51.4564048371766], [-0.0356966262073358, 51.4563169695963], [-0.0346482618599534, 51.4560649541472], [-0.0316090551348761, 51.4552586035542]]]}, "properties": {"MSOA21CD": "E02000667", "MSOA21NM": "Lewisham 015"}}, {"type": "Feature", "geometry": {"type": "Polygon", "coordinates": [[[0.0118041559307427, 51.4551584337918], [0.012676803970674, 51.4544979478534], [0.0136320124506352, 51.4546164470647], [0.0139232888549992, 51.453712160812], [0.0142406109163616, 51.4527176920517], [0.0150503201275359, 51.4528294908395], [0.0156780505914103, 51.4529126528675], [0.0163375267158038, 51.4512706416157], [0.0183969539513594, 51.4515947352566], [0.019591132346485, 51.4517214274594], [0.0198657057628444, 51.4507276816846], [0.0150300495634183, 51.4502189547717], [0.0150677999648053, 51.4500384254891], [0.0206004510754992, 51.4491192677458], [0.0219536702003066, 51.4489577079526], [0.0223353156571994, 51.4481654204934], [0.0223697080024595, 51.4481129295829], [0.0146805520886219, 51.4462747181257], [0.0137875623311581, 51.4460225457154], [0.011918719170794, 51.445849962331], [0.0115988514369165, 51.4458317253656], [0.0085552897078418, 51.445650194803], [0.00539756606877181, 51.4454179604183], [0.00510503812784412, 51.4457108005762], [0.00323250103006795, 51.4475822317535], [0.00207825693787403, 51.4487329524598], [-0.0011143402776958, 51.4518476105722], [-0.000737117433248658, 51.4526060717079], [0.00179003078210059, 51.4515605211797], [0.00260780855478546, 51.4518319684189], [-0.000236935051510075, 51.4529036529563], [0.000391557425711599, 51.4534561853923], [0.000453168914997218, 51.4537459344611], [0.000971808989418955, 51.4541046727046], [0.00204682391825195, 51.4536726589051], [0.00237504297789486, 51.4539668779869], [0.00386136908649574, 51.4537276105413], [0.00387626933656546, 51.4541801188436], [0.00437092273671692, 51.4542296983911], [0.00450526098708418, 51.4539634717564], [0.00502946593424228, 51.4540187036188], [0.00547103412124769, 51.4533789667791], [0.00837569305392911, 51.453667122582], [0.00831423064027375, 51.4540191209341], [0.00878974830999145, 51.4540658529705], [0.0106674763600866, 51.4542170997967], [0.0117160711335081, 51.4542536266642], [0.0118041559307427, 51.4551584337918]]]}, "properties": {"MSOA21CD": "E02000668", "MSOA21NM": "Lewisham 016"}}, {"type": "Feature", "geometry": {"type": "Polygon", "coordinates": [[[-0.00844567918073455, 51.4540131599764], [-0.00746208546647009, 51.4527252441519], [-0.0063318783876493, 51.4513253672309], [-0.00620593047753048, 51.4518986428126], [-0.0051352504680844, 51.4521593378974], [-0.00455293402622823, 51.4526706446036], [-0.00347356461960525, 51.4526142911561], [-0.00268426268357672, 51.4526902691259], [-0.00284400682878966, 51.4529609579506], [-0.0024758720646853, 51.4530782867537], [-0.0011143402776958, 51.4518476105722], [0.00207825693787403, 51.4487329524598], [0.00323250103006795, 51.4475822317535], [0.00510503812784412, 51.4457108005762], [0.00539756606877181, 51.4454179604183], [0.00444478165148928, 51.4452607607409], [0.00443395301380067, 51.4452595572947], [0.00130043877260254, 51.4451603222847], [-0.0010062814367217, 51.445104254144], [-0.00215725260088237, 51.4450781804595], [-0.00568537969426026, 51.4450788996006], [-0.00566688507672073, 51.4453960113186], [-0.00620111858811855, 51.4468723909507], [-0.006879894113468, 51.4483598193063], [-0.00702250060936166, 51.4493834721718], [-0.00703224010026367, 51.4496569824659], [-0.00816584943791598, 51.4497943188096], [-0.00897669592748189, 51.4505940043561], [-0.010538853208194, 51.450570527522], [-0.0113174309211461, 51.4505295557237], [-0.0139042328122839, 51.450397691746], [-0.014523817481577, 51.4503925839522], [-0.0160611612685898, 51.4504504078695], [-0.0169352476359426, 51.4505069516094], [-0.0167454730329427, 51.4520303690252], [-0.0162734627011097, 51.452010482439], [-0.0159459385888218, 51.4515743827359], [-0.0142940776124475, 51.4514589382463], [-0.0141517509683924, 51.4518363266887], [-0.0141368728723033, 51.451875775557], [-0.0145273985957585, 51.4518841313335], [-0.0141011713263047, 51.4519247037554], [-0.013067402323633, 51.451698328552], [-0.0109461284143161, 51.4517022320314], [-0.010276777329508, 51.4520616637106], [-0.0105258486649938, 51.4526362691852], [-0.011347281073803, 51.4534868399454], [-0.011085941690366, 51.453909776001], [-0.0101213069316626, 51.4539174258125], [-0.00986231580088764, 51.4536823516618], [-0.00886958681816776, 51.4538940523386], [-0.00844567918073455, 51.4540131599764]]]}, "properties": {"MSOA21CD": "E02000669", "MSOA21NM": "Lewisham 017"}}, {"type": "Feature", "geometry": {"type": "Polygon", "coordinates": [[[-0.00897669592748189, 51.4505940043561], [-0.00816584943791598, 51.4497943188096], [-0.00703224010026367, 51.4496569824659], [-0.00702250060936166, 51.4493834721718], [-0.006879894113468, 51.4483598193063], [-0.00620111858811855, 51.4468723909507], [-0.00566688507672073, 51.4453960113186], [-0.00568537969426026, 51.4450788996006], [-0.00695504882839523, 51.4450837684095], [-0.00898836385540697, 51.4450907782644], [-0.00903412794046299, 51.4445797403305], [-0.00918514509149076, 51.4441991765969], [-0.0101611907007689, 51.442194888915], [-0.0101623751119335, 51.4421914089886], [-0.0102733234689309, 51.4418717785057], [-0.0111426073851832, 51.4420631504313], [-0.0133855662825895, 51.4425023238193], [-0.0139798931408115, 51.4429269681264], [-0.0143807508303835, 51.4427579490472], [-0.0188436208394347, 51.44355027897], [-0.0191824836171108, 51.44314080415], [-0.020325944711087, 51.4431980378289], [-0.020117019556422, 51.4441797680769], [-0.0178899796305524, 51.4439932219729], [-0.0176994162817422, 51.4445584215739], [-0.0184003920697556, 51.4448043869199], [-0.0181286288886936, 51.4459868773217], [-0.0172779780237223, 51.4458975727549], [-0.0171315874690865, 51.4462333011072], [-0.018116942829851, 51.4463705665076], [-0.0179416243630636, 51.4467077584964], [-0.0179392348788023, 51.4467099645315], [-0.0177577905102657, 51.4470816859659], [-0.0171918459120547, 51.4470517515316], [-0.0172149422094265, 51.44794308114], [-0.017124029271091, 51.4482411588955], [-0.0175547341472252, 51.4483036552326], [-0.0170218074918442, 51.4497519551213], [-0.0169352476359426, 51.4505069516094], [-0.0160611612685898, 51.4504504078695], [-0.014523817481577, 51.4503925839522], [-0.0139042328122839, 51.450397691746], [-0.0113174309211461, 51.4505295557237], [-0.010538853208194, 51.450570527522], [-0.00897669592748189, 51.4505940043561]]]}, "properties": {"MSOA21CD": "E02000670", "MSOA21NM": "Lewisham 018"}}, {"type": "Feature", "geometry": {"type": "Polygon", "coordinates": [[[-0.0432192268886209, 51.4508645539367], [-0.0408428700654354, 51.4503384579885], [-0.0402999961996168, 51.4513182027137], [-0.0397857163968545, 51.4512049665417], [-0.0391111752012909, 51.4519067804688], [-0.0388231665873483, 51.4505368352917], [-0.0372310401236476, 51.4506242476234], [-0.0366760601883325, 51.4501911858163], [-0.0343003363300375, 51.4513757310986], [-0.0345397692637156, 51.4509039393272], [-0.0342253527360206, 51.4507553658809], [-0.0335948563402321, 51.4514223076715], [-0.0331693271175665, 51.4512721302958], [-0.0339770195106349, 51.4502906669118], [-0.033536281069937, 51.4501775552327], [-0.0344807444788264, 51.4490241663676], [-0.0337864176789767, 51.4490036484358], [-0.033219876624883, 51.4487985870862], [-0.0334157280589243, 51.4482436488607], [-0.0352597784679267, 51.4472724571124], [-0.0332759211656524, 51.4465636654529], [-0.034006246698079, 51.4455308300961], [-0.0333358088131111, 51.4443064151871], [-0.0343291951675695, 51.4441001559151], [-0.0338078824325573, 51.4428780078398], [-0.0340023785061848, 51.4422473268535], [-0.0362192811705435, 51.4423651659293], [-0.0388173070430313, 51.4421565382663], [-0.0394762515217728, 51.4421037254707], [-0.042513281696315, 51.442269931226], [-0.0468158086888414, 51.4423007007919], [-0.0473904978881119, 51.4423019627284], [-0.0495133740135798, 51.442344614378], [-0.0499944031752979, 51.44235509046], [-0.0517605540863323, 51.4420864553697], [-0.0500854192704844, 51.4442342564003], [-0.0494941057911593, 51.4449814513498], [-0.0494373365921729, 51.445054661772], [-0.0489426142624517, 51.4456918057694], [-0.0475843450821792, 51.4474202752431], [-0.0471044523113928, 51.4480108624328], [-0.045731211350494, 51.4497788866248], [-0.0461257805854853, 51.4498731879226], [-0.0424572582651734, 51.4538433630841], [-0.0421604984738625, 51.4535828067755], [-0.0417921817357845, 51.4527493302265], [-0.0422422754703904, 51.4522860240431], [-0.0420438610039112, 51.4519808745991], [-0.0432192268886209, 51.4508645539367]]]}, "properties": {"MSOA21CD": "E02000671", "MSOA21NM": "Lewisham 019"}}, {"type": "Feature", "geometry": {"type": "Polygon", "coordinates": [[[-0.0170218074918442, 51.4497519551213], [-0.0175547341472252, 51.4483036552326], [-0.017124029271091, 51.4482411588955], [-0.0172149422094265, 51.44794308114], [-0.0171918459120547, 51.4470517515316], [-0.0177577905102657, 51.4470816859659], [-0.0179392348788023, 51.4467099645315], [-0.0179416243630636, 51.4467077584964], [-0.018116942829851, 51.4463705665076], [-0.0171315874690865, 51.4462333011072], [-0.0172779780237223, 51.4458975727549], [-0.0181286288886936, 51.4459868773217], [-0.0184003920697556, 51.4448043869199], [-0.0176994162817422, 51.4445584215739], [-0.0178899796305524, 51.4439932219729], [-0.020117019556422, 51.4441797680769], [-0.020325944711087, 51.4431980378289], [-0.020579901058574, 51.4409184204125], [-0.0202355015071001, 51.4397762197093], [-0.0194688263916558, 51.4389265234506], [-0.0202010015915733, 51.438698801458], [-0.0224305364861514, 51.4395906022182], [-0.0228061664691044, 51.4390766192124], [-0.0237928544815739, 51.4392481683316], [-0.024245792237306, 51.4386459236541], [-0.0256696021502836, 51.4406182491211], [-0.0264065055867189, 51.4420932527626], [-0.0264608699789623, 51.4436281527738], [-0.027545503577558, 51.4427441675445], [-0.0295089205144057, 51.440646474495], [-0.0303352350747037, 51.4403719839524], [-0.0329636094741632, 51.4390667722084], [-0.0334444881521447, 51.4416077498128], [-0.0335136810656091, 51.4421163252141], [-0.0340023785061848, 51.4422473268535], [-0.0338078824325573, 51.4428780078398], [-0.0343291951675695, 51.4441001559151], [-0.0333358088131111, 51.4443064151871], [-0.034006246698079, 51.4455308300961], [-0.0332759211656524, 51.4465636654529], [-0.0317958176946764, 51.4480075711676], [-0.0303481192287033, 51.4483401865282], [-0.0296720246321681, 51.4483654724871], [-0.0297803319207546, 51.4487762070987], [-0.0286706173207033, 51.4488105127473], [-0.0280793080291344, 51.4485348480073], [-0.0260741629743202, 51.4494685491976], [-0.0256037928756551, 51.4495714929568], [-0.0258470851777003, 51.449957507373], [-0.0230738753289467, 51.4519147000393], [-0.0220148683382623, 51.4520317623121], [-0.0201630672846068, 51.4526602664815], [-0.0180217032106926, 51.4522813056328], [-0.0167002305582383, 51.4522014998309], [-0.0167454730329427, 51.4520303690252], [-0.0169352476359426, 51.4505069516094], [-0.0170218074918442, 51.4497519551213]]]}, "properties": {"MSOA21CD": "E02000672", "MSOA21NM": "Lewisham 020"}}, {"type": "Feature", "geometry": {"type": "Polygon", "coordinates": [[[-0.0563896405945662, 51.4498877363066], [-0.0539198167712192, 51.4487268680557], [-0.0498741032392862, 51.4498598298681], [-0.0480085709693825, 51.4500832525884], [-0.0461257805854853, 51.4498731879226], [-0.045731211350494, 51.4497788866248], [-0.0471044523113928, 51.4480108624328], [-0.0475843450821792, 51.4474202752431], [-0.0489426142624517, 51.4456918057694], [-0.0494373365921729, 51.445054661772], [-0.0494941057911593, 51.4449814513498], [-0.0500854192704844, 51.4442342564003], [-0.0517605540863323, 51.4420864553697], [-0.0523060021741815, 51.4412102863499], [-0.052761793267259, 51.4402916814937], [-0.0530495842267834, 51.4394719635852], [-0.0533440357919698, 51.438247399804], [-0.0533787522028433, 51.4379932635518], [-0.0540642106249249, 51.4378532654712], [-0.0539884476008019, 51.4370489317123], [-0.0547774826193082, 51.4367921145334], [-0.0549558825309631, 51.4374959324025], [-0.0549942274591, 51.4380089369865], [-0.055545997501186, 51.4383159239085], [-0.0551619505298151, 51.438851271961], [-0.0562074721540395, 51.4392700591929], [-0.0565897799240875, 51.4388144818921], [-0.0579030688613773, 51.4373894746645], [-0.0593655697590888, 51.4377811618102], [-0.0591780673719644, 51.4384891782365], [-0.0582574689077323, 51.4391800108277], [-0.0584318622710155, 51.439988748896], [-0.0589172843480383, 51.4403008747638], [-0.0595065686095811, 51.439772439634], [-0.0604353229219693, 51.4404698063065], [-0.0637833742146068, 51.4409084876738], [-0.0642972138799317, 51.4409739315626], [-0.0640390611040292, 51.4408505725707], [-0.0647425970925439, 51.4410487460046], [-0.0649761192959564, 51.4411803504595], [-0.0638457700653723, 51.4425257590799], [-0.0637152855520128, 51.4440639975176], [-0.0637172370748342, 51.4442372421462], [-0.062195240587169, 51.4473509029819], [-0.0603861586147357, 51.4486751705306], [-0.0600111724196875, 51.4488406680761], [-0.0575354724773353, 51.4503387280909], [-0.0570211471394639, 51.4501370401748], [-0.0563896405945662, 51.4498877363066]]]}, "properties": {"MSOA21CD": "E02000673", "MSOA21NM": "Lewisham 021"}}, {"type": "Feature", "geometry": {"type": "Polygon", "coordinates": [[[0.00384322276225109, 51.4421902456899], [0.00489728821234859, 51.4405478096444], [0.00535547393455516, 51.439521095853], [0.00565524112978535, 51.4382540888078], [0.00575906367173937, 51.4379086232995], [0.0059738302983837, 51.4372535866228], [0.003330263099629, 51.4366646287748], [0.00242829450825507, 51.436747631265], [0.00191204166682484, 51.4366560926781], [0.000718970668306193, 51.4363985889574], [0.000589379467972006, 51.43680844673], [0.00173428246656513, 51.4369782480243], [0.00171737224642405, 51.4372947388681], [0.0011636195566332, 51.4372692205856], [-0.000554820516839303, 51.4369192180568], [-0.00110755832146989, 51.4369183338372], [-0.00114876031393515, 51.4374806051316], [-0.00229538511895986, 51.4375692465902], [-0.00345997693020167, 51.4375567519866], [-0.00400966325317518, 51.4375550735832], [-0.00452419570313038, 51.4375623719186], [-0.00454036449934209, 51.4371321402872], [-0.00493250834071645, 51.4371172194953], [-0.00633737576197978, 51.4371681406693], [-0.00628386328024188, 51.4375711187685], [-0.00514664011490466, 51.4375631130919], [-0.00526743092947066, 51.4397590946101], [-0.00676905924619634, 51.4397707111368], [-0.00746088303936614, 51.4393019682904], [-0.00878998013698622, 51.4398091472131], [-0.00865470693017245, 51.4382881987468], [-0.00923082316223952, 51.4382563058273], [-0.00943676630362761, 51.4390913082992], [-0.00990536435304025, 51.4382802171875], [-0.0102396423017405, 51.4386051531943], [-0.0108134947035103, 51.4402517315017], [-0.0103587376361448, 51.4406055221286], [-0.00950643853037879, 51.440546663422], [-0.00940210687320255, 51.4408682940522], [-0.00841869009890283, 51.440832678895], [-0.00844395928434248, 51.4411949717065], [-0.00888878235716624, 51.4411921010653], [-0.00889200956861613, 51.4420882403839], [-0.0101623751119335, 51.4421914089886], [-0.0101611907007689, 51.442194888915], [-0.00918514509149076, 51.4441991765969], [-0.00903412794046299, 51.4445797403305], [-0.00898836385540697, 51.4450907782644], [-0.00695504882839523, 51.4450837684095], [-0.00568537969426026, 51.4450788996006], [-0.00215725260088237, 51.4450781804595], [-0.0010062814367217, 51.445104254144], [0.00130043877260254, 51.4451603222847], [0.00443395301380067, 51.4452595572947], [0.00444478165148928, 51.4452607607409], [0.00380962682870315, 51.4423063761931], [0.00384322276225109, 51.4421902456899]]]}, "properties": {"MSOA21CD": "E02000674", "MSOA21NM": "Lewisham 022"}}, {"type": "Feature", "geometry": {"type": "Polygon", "coordinates": [[[0.0250543029939395, 51.4368219985634], [0.0253792453942382, 51.4358419464178], [0.0249724392472742, 51.4360193258348], [0.0251962142405714, 51.4354491841264], [0.0239261884641493, 51.4356733997536], [0.0242415511653103, 51.4351406456418], [0.0236169158242556, 51.4343482765787], [0.0236933380377851, 51.4341013423111], [0.0242771992665655, 51.4341076291304], [0.0249545298103569, 51.4334167473589], [0.0255594462249088, 51.4334353819496], [0.0258108293877876, 51.4329783469722], [0.0248320337390208, 51.4318552250953], [0.0250456628422832, 51.4315897569481], [0.0232419184010619, 51.4315659058555], [0.0228038662072386, 51.4315536798865], [0.0213208044855765, 51.4315253001666], [0.0213167265639746, 51.4317591980714], [0.0210570576860101, 51.4313929462766], [0.0192132161349139, 51.4326431549032], [0.0179768780830468, 51.4335732808941], [0.0170975422852874, 51.4342918849642], [0.0158691626374301, 51.4353080338272], [0.014151065153942, 51.4368526571437], [0.0110045964056779, 51.4398846119101], [0.0103537543450158, 51.4405285269837], [0.00831707269485974, 51.4425409873685], [0.00738270318316476, 51.4434618288527], [0.0073065678388666, 51.4435362510665], [0.00712578852748644, 51.4437143729592], [0.00539756606877181, 51.4454179604183], [0.0085552897078418, 51.445650194803], [0.0115988514369165, 51.4458317253656], [0.011918719170794, 51.445849962331], [0.0137875623311581, 51.4460225457154], [0.0146805520886219, 51.4462747181257], [0.0223697080024595, 51.4481129295829], [0.0229408915242033, 51.4471969120316], [0.0212474714378465, 51.4467047751637], [0.0211973012754444, 51.4464480370492], [0.0215212634510361, 51.4444061154455], [0.0206611381282192, 51.4441744697838], [0.0215849380616119, 51.4427077287197], [0.0217749354838044, 51.4426557211861], [0.0250308047906246, 51.4417965996905], [0.0289133282083536, 51.4416254090528], [0.0288644101318178, 51.4412148849447], [0.0284630338365535, 51.440374646233], [0.0287173613932563, 51.4388059032013], [0.0248169303356639, 51.4382378633], [0.0250543029939395, 51.4368219985634]]]}, "properties": {"MSOA21CD": "E02000675", "MSOA21NM": "Lewisham 023"}}, {"type": "Feature", "geometry": {"type": "Polygon", "coordinates": [[[-0.0335136810656091, 51.4421163252141], [-0.0334444881521447, 51.4416077498128], [-0.0329636094741632, 51.4390667722084], [-0.0329968060554873, 51.4390315986506], [-0.0337604512522832, 51.4372704307599], [-0.0338390152409196, 51.4371037703872], [-0.0346416742327099, 51.4372555189025], [-0.0349635392243681, 51.4364658003314], [-0.0356055272235167, 51.4365934717766], [-0.0353892053277833, 51.4369405670158], [-0.0358444479216936, 51.4370586896674], [-0.0363354633460203, 51.436850249423], [-0.0373327407005318, 51.4373371139352], [-0.0378329449308378, 51.4371594051532], [-0.0382431544290483, 51.4374944648657], [-0.0387537517575936, 51.4372956364013], [-0.0401596254628257, 51.4365907715124], [-0.040901829863605, 51.4368546326953], [-0.0413886952759766, 51.4363331807819], [-0.0411303345303753, 51.4359848753304], [-0.0424066329251169, 51.4354515679059], [-0.04318606186142, 51.4352484692755], [-0.0432331905708436, 51.435521381052], [-0.0441687022857842, 51.435695471957], [-0.0448815909167325, 51.4355660272656], [-0.0446741290484682, 51.4351836142139], [-0.0455858617093952, 51.4351021686358], [-0.045857131714676, 51.4350742194005], [-0.0465854270972322, 51.4350662723017], [-0.0462622693622799, 51.4355485334522], [-0.0465894258932064, 51.4368373455127], [-0.0460206010031295, 51.4369358841567], [-0.0460620217659558, 51.4374458692527], [-0.0472989639876136, 51.437364464521], [-0.0488269158774444, 51.4379744554486], [-0.0500350964907053, 51.4383680155048], [-0.0497307290270498, 51.4398885138909], [-0.048913790877786, 51.4401859508082], [-0.048824044412016, 51.4406692272275], [-0.0481104433807229, 51.4404910723979], [-0.0478400019089865, 51.4406779356793], [-0.0482293120354618, 51.4409871758696], [-0.0512581518500655, 51.439936777907], [-0.052761793267259, 51.4402916814937], [-0.0523060021741815, 51.4412102863499], [-0.0517605540863323, 51.4420864553697], [-0.0499944031752979, 51.44235509046], [-0.0495133740135798, 51.442344614378], [-0.0473904978881119, 51.4423019627284], [-0.0468158086888414, 51.4423007007919], [-0.042513281696315, 51.442269931226], [-0.0394762515217728, 51.4421037254707], [-0.0388173070430313, 51.4421565382663], [-0.0362192811705435, 51.4423651659293], [-0.0340023785061848, 51.4422473268535], [-0.0335136810656091, 51.4421163252141]]]}, "properties": {"MSOA21CD": "E02000676", "MSOA21NM": "Lewisham 024"}}, {"type": "Feature", "geometry": {"type": "Polygon", "coordinates": [[[-0.0188436208394347, 51.44355027897], [-0.0143807508303835, 51.4427579490472], [-0.0139798931408115, 51.4429269681264], [-0.0133855662825895, 51.4425023238193], [-0.0111426073851832, 51.4420631504313], [-0.0102733234689309, 51.4418717785057], [-0.0101623751119335, 51.4421914089886], [-0.00889200956861613, 51.4420882403839], [-0.00888878235716624, 51.4411921010653], [-0.00844395928434248, 51.4411949717065], [-0.00841869009890283, 51.440832678895], [-0.00940210687320255, 51.4408682940522], [-0.00950643853037879, 51.440546663422], [-0.0103587376361448, 51.4406055221286], [-0.0108134947035103, 51.4402517315017], [-0.0102396423017405, 51.4386051531943], [-0.00990536435304025, 51.4382802171875], [-0.00943676630362761, 51.4390913082992], [-0.00923082316223952, 51.4382563058273], [-0.00865470693017245, 51.4382881987468], [-0.00878998013698622, 51.4398091472131], [-0.00746088303936614, 51.4393019682904], [-0.00676905924619634, 51.4397707111368], [-0.00526743092947066, 51.4397590946101], [-0.00514664011490466, 51.4375631130919], [-0.00628386328024188, 51.4375711187685], [-0.00633737576197978, 51.4371681406693], [-0.00493250834071645, 51.4371172194953], [-0.00454036449934209, 51.4371321402872], [-0.00452419570313038, 51.4375623719186], [-0.00400966325317518, 51.4375550735832], [-0.00345997693020167, 51.4375567519866], [-0.00229538511895986, 51.4375692465902], [-0.00114876031393515, 51.4374806051316], [-0.00110755832146989, 51.4369183338372], [-0.000554820516839303, 51.4369192180568], [0.0011636195566332, 51.4372692205856], [0.00171737224642405, 51.4372947388681], [0.00173428246656513, 51.4369782480243], [0.000589379467972006, 51.43680844673], [0.000718970668306193, 51.4363985889574], [-0.00358198950445142, 51.4357531409272], [-0.00392155661562352, 51.4356802508496], [-0.00840478093153052, 51.4347073838757], [-0.00876992389960375, 51.4346269734174], [-0.0118744608670635, 51.4339515148705], [-0.0125064218190683, 51.433801415262], [-0.015568366283569, 51.433150739705], [-0.0166375452478967, 51.4329144888289], [-0.016870010439083, 51.4333498527107], [-0.0175648018115581, 51.4331989986207], [-0.0192345636757237, 51.4327727172032], [-0.0194896057977497, 51.4332029607531], [-0.0202217290357307, 51.434332651687], [-0.0208958983937823, 51.4352115772028], [-0.0225424257668692, 51.4369812245122], [-0.0235967756707984, 51.4380104634792], [-0.024245792237306, 51.4386459236541], [-0.0237928544815739, 51.4392481683316], [-0.0228061664691044, 51.4390766192124], [-0.0224305364861514, 51.4395906022182], [-0.0202010015915733, 51.438698801458], [-0.0194688263916558, 51.4389265234506], [-0.0202355015071001, 51.4397762197093], [-0.020579901058574, 51.4409184204125], [-0.020325944711087, 51.4431980378289], [-0.0191824836171108, 51.44314080415], [-0.0188436208394347, 51.44355027897]]]}, "properties": {"MSOA21CD": "E02000677", "MSOA21NM": "Lewisham 025"}}, {"type": "Feature", "geometry": {"type": "Polygon", "coordinates": [[[0.014151065153942, 51.4368526571437], [0.0158691626374301, 51.4353080338272], [0.0170975422852874, 51.4342918849642], [0.0179768780830468, 51.4335732808941], [0.0192132161349139, 51.4326431549032], [0.016171876191835, 51.4317194458104], [0.0161643865301373, 51.4317177472298], [0.0127262622340346, 51.4307650241302], [0.0117560930633268, 51.430616703176], [0.0110351484059294, 51.4305241123913], [0.0109039780924192, 51.4305058578816], [0.00874764758227842, 51.430210427401], [0.0051356769038662, 51.4297373192904], [0.00486350399515468, 51.4303973328137], [-0.00156846785606543, 51.4294301076855], [-0.00212140279683383, 51.4310331400942], [0.0010406570188072, 51.4318357379631], [0.0010387542480276, 51.4322931224866], [0.00245491152914388, 51.4326062516881], [0.00330207365736181, 51.4331130083667], [0.00311372915039941, 51.4334788017791], [0.00366922610803234, 51.4340005597378], [0.00403427090197553, 51.4338211644852], [0.00519953410640599, 51.4339136729645], [0.00740474201987714, 51.434436029854], [0.00673877086347401, 51.4355046848445], [0.00566253972776294, 51.4352974503409], [0.00553169341020751, 51.4355139901838], [0.00487709252545494, 51.4355175398313], [0.00441181193556824, 51.4360579613021], [0.00308320545588149, 51.4357334969633], [0.00242829450825507, 51.436747631265], [0.003330263099629, 51.4366646287748], [0.0059738302983837, 51.4372535866228], [0.00575906367173937, 51.4379086232995], [0.00565524112978535, 51.4382540888078], [0.00535547393455516, 51.439521095853], [0.00489728821234859, 51.4405478096444], [0.00384322276225109, 51.4421902456899], [0.00380962682870315, 51.4423063761931], [0.00444478165148928, 51.4452607607409], [0.00539756606877181, 51.4454179604183], [0.00712578852748644, 51.4437143729592], [0.0073065678388666, 51.4435362510665], [0.00738270318316476, 51.4434618288527], [0.00831707269485974, 51.4425409873685], [0.0103537543450158, 51.4405285269837], [0.0110045964056779, 51.4398846119101], [0.014151065153942, 51.4368526571437]]]}, "properties": {"MSOA21CD": "E02000678", "MSOA21NM": "Lewisham 026"}}, {"type": "Feature", "geometry": {"type": "Polygon", "coordinates": [[[-0.0478400019089865, 51.4406779356793], [-0.0481104433807229, 51.4404910723979], [-0.048824044412016, 51.4406692272275], [-0.048913790877786, 51.4401859508082], [-0.0497307290270498, 51.4398885138909], [-0.0500350964907053, 51.4383680155048], [-0.0488269158774444, 51.4379744554486], [-0.0472989639876136, 51.437364464521], [-0.0460620217659558, 51.4374458692527], [-0.0460206010031295, 51.4369358841567], [-0.0465894258932064, 51.4368373455127], [-0.0462622693622799, 51.4355485334522], [-0.0465854270972322, 51.4350662723017], [-0.045857131714676, 51.4350742194005], [-0.0455858617093952, 51.4351021686358], [-0.0446741290484682, 51.4351836142139], [-0.0448815909167325, 51.4355660272656], [-0.0441687022857842, 51.435695471957], [-0.0432331905708436, 51.435521381052], [-0.04318606186142, 51.4352484692755], [-0.0424066329251169, 51.4354515679059], [-0.0411303345303753, 51.4359848753304], [-0.0413886952759766, 51.4363331807819], [-0.040901829863605, 51.4368546326953], [-0.0401596254628257, 51.4365907715124], [-0.0387537517575936, 51.4372956364013], [-0.0382431544290483, 51.4374944648657], [-0.0378329449308378, 51.4371594051532], [-0.0373327407005318, 51.4373371139352], [-0.0363354633460203, 51.436850249423], [-0.0358444479216936, 51.4370586896674], [-0.0353892053277833, 51.4369405670158], [-0.0356055272235167, 51.4365934717766], [-0.0349635392243681, 51.4364658003314], [-0.0346416742327099, 51.4372555189025], [-0.0338390152409196, 51.4371037703872], [-0.0341239855445811, 51.4365092007722], [-0.0344335522124453, 51.4355391047841], [-0.035767177268091, 51.4343410931205], [-0.036198227504283, 51.4345810299045], [-0.037499665759144, 51.434656746217], [-0.0375871839504326, 51.4341867918024], [-0.0403235895302632, 51.4328150199074], [-0.0405182082598398, 51.4327214965937], [-0.0409165251762869, 51.4325275665345], [-0.0400411020645563, 51.4318732580533], [-0.0388452668785034, 51.4311829641638], [-0.0400296950294571, 51.4306867865578], [-0.0413956967366038, 51.4303535269324], [-0.0422456433071935, 51.429988857408], [-0.0429471680298589, 51.4296974698949], [-0.0457806663266455, 51.4295623457321], [-0.0465773869775699, 51.4295501235231], [-0.0467173544308101, 51.4287215941384], [-0.0467621838611774, 51.4285963194157], [-0.048683704347492, 51.4287988134759], [-0.0514332902491348, 51.4291110048167], [-0.0524542156050241, 51.4293107455975], [-0.052387147500697, 51.4296850482017], [-0.0533361691813595, 51.4298050949225], [-0.0531944579934289, 51.4302824842141], [-0.0530007527356077, 51.4315814762562], [-0.0529768528204167, 51.4323960297704], [-0.0530255285752474, 51.4333318211925], [-0.0530749300902771, 51.4337295319832], [-0.0531878516846527, 51.4344648996701], [-0.0533783604328588, 51.4353482822009], [-0.0534104621948766, 51.4355742389976], [-0.0534606877653767, 51.4370111261724], [-0.0533787522028433, 51.4379932635518], [-0.0533440357919698, 51.438247399804], [-0.0530495842267834, 51.4394719635852], [-0.052761793267259, 51.4402916814937], [-0.0512581518500655, 51.439936777907], [-0.0482293120354618, 51.4409871758696], [-0.0478400019089865, 51.4406779356793]]]}, "properties": {"MSOA21CD": "E02000679", "MSOA21NM": "Lewisham 027"}}, {"type": "Feature", "geometry": {"type": "Polygon", "coordinates": [[[-0.0604353229219693, 51.4404698063065], [-0.0595065686095811, 51.439772439634], [-0.0589172843480383, 51.4403008747638], [-0.0584318622710155, 51.439988748896], [-0.0582574689077323, 51.4391800108277], [-0.0591780673719644, 51.4384891782365], [-0.0593655697590888, 51.4377811618102], [-0.0579030688613773, 51.4373894746645], [-0.0565897799240875, 51.4388144818921], [-0.0562074721540395, 51.4392700591929], [-0.0551619505298151, 51.438851271961], [-0.055545997501186, 51.4383159239085], [-0.0549942274591, 51.4380089369865], [-0.0549558825309631, 51.4374959324025], [-0.0547774826193082, 51.4367921145334], [-0.0539884476008019, 51.4370489317123], [-0.0540642106249249, 51.4378532654712], [-0.0533787522028433, 51.4379932635518], [-0.0534606877653767, 51.4370111261724], [-0.0534104621948766, 51.4355742389976], [-0.0533783604328588, 51.4353482822009], [-0.0531878516846527, 51.4344648996701], [-0.0530749300902771, 51.4337295319832], [-0.0557420972202082, 51.4331388795286], [-0.0561269381369623, 51.4329609296738], [-0.0587396243948657, 51.4311238355785], [-0.0588553232527159, 51.4310693529168], [-0.0594443152342868, 51.4308431284533], [-0.0604496075563057, 51.4307368620429], [-0.0614287651615414, 51.4305502075976], [-0.0626675039382237, 51.4306501838116], [-0.0652264630269964, 51.430899459451], [-0.0657777831816935, 51.4309562089922], [-0.0660146210362453, 51.4309825205469], [-0.0664756506539168, 51.4310515343987], [-0.0688919526103056, 51.4314327796192], [-0.0699974284471318, 51.4317274933402], [-0.0718511930811099, 51.4316937560413], [-0.0728335964200672, 51.4320877671622], [-0.0726038085292957, 51.4322916598409], [-0.068949201042539, 51.4328624709516], [-0.06647671578878, 51.4340635901931], [-0.0657370940891073, 51.4347582497406], [-0.0649875940134266, 51.4360126487258], [-0.0645297432072755, 51.4368079194759], [-0.0634307456789069, 51.4376175786948], [-0.0636788549255631, 51.4379623492142], [-0.0640390611040292, 51.4408505725707], [-0.0642972138799317, 51.4409739315626], [-0.0637833742146068, 51.4409084876738], [-0.0604353229219693, 51.4404698063065]]]}, "properties": {"MSOA21CD": "E02000680", "MSOA21NM": "Lewisham 028"}}, {"type": "Feature", "geometry": {"type": "Polygon", "coordinates": [[[-0.0202217290357307, 51.434332651687], [-0.0194896057977497, 51.4332029607531], [-0.0192345636757237, 51.4327727172032], [-0.0192312740739095, 51.4327653477332], [-0.0181521077620252, 51.4297961341484], [-0.0179937797134108, 51.4289908598525], [-0.0191105328136245, 51.428946274488], [-0.0191935453295149, 51.4294019698553], [-0.0198147580030409, 51.4289576475004], [-0.0201298323557482, 51.42907523489], [-0.0203492677427554, 51.4301673742981], [-0.0207391272958364, 51.4293470158412], [-0.0210128243318494, 51.4292639728332], [-0.0216261384399583, 51.4299978708738], [-0.02214207641946, 51.4311406298413], [-0.0231244557113185, 51.4309756299044], [-0.0238149775313126, 51.4302645391945], [-0.0240709116744453, 51.4302024128707], [-0.0241934964115062, 51.4296079811211], [-0.0251339440857774, 51.429662556157], [-0.025333025458546, 51.4293135860348], [-0.0267052247798094, 51.4290143005209], [-0.0267661505664219, 51.4286077596405], [-0.0275005024818526, 51.4285862208345], [-0.0283843758124727, 51.4290314038939], [-0.0293860946579629, 51.4288603365077], [-0.0295453392872585, 51.4292029793127], [-0.0295529211389357, 51.4292227021976], [-0.0313031064486257, 51.4300512425108], [-0.0319397950657293, 51.4291640635401], [-0.0314927285058643, 51.4278341115574], [-0.0318925171271958, 51.4279070369298], [-0.0342322966285536, 51.4283599572671], [-0.0334788207195001, 51.429156682427], [-0.0342379177070226, 51.4297581831825], [-0.0340296963724852, 51.4307424158779], [-0.0353258431470621, 51.4306805238951], [-0.0375974214419706, 51.4307365132118], [-0.0373699576227691, 51.4293342031415], [-0.037105293364192, 51.429127547394], [-0.0373401741013791, 51.4286818283595], [-0.0395023704273063, 51.4277094597127], [-0.0407393138545301, 51.4289886469818], [-0.0407580312308679, 51.4290256149185], [-0.0413956967366038, 51.4303535269324], [-0.0400296950294571, 51.4306867865578], [-0.0388452668785034, 51.4311829641638], [-0.0400411020645563, 51.4318732580533], [-0.0409165251762869, 51.4325275665345], [-0.0405182082598398, 51.4327214965937], [-0.0403235895302632, 51.4328150199074], [-0.0375871839504326, 51.4341867918024], [-0.037499665759144, 51.434656746217], [-0.036198227504283, 51.4345810299045], [-0.035767177268091, 51.4343410931205], [-0.0344335522124453, 51.4355391047841], [-0.0341239855445811, 51.4365092007722], [-0.0338390152409196, 51.4371037703872], [-0.0337604512522832, 51.4372704307599], [-0.0329968060554873, 51.4390315986506], [-0.0329636094741632, 51.4390667722084], [-0.0303352350747037, 51.4403719839524], [-0.0295089205144057, 51.440646474495], [-0.027545503577558, 51.4427441675445], [-0.0264608699789623, 51.4436281527738], [-0.0264065055867189, 51.4420932527626], [-0.0256696021502836, 51.4406182491211], [-0.024245792237306, 51.4386459236541], [-0.0235967756707984, 51.4380104634792], [-0.0225424257668692, 51.4369812245122], [-0.0208958983937823, 51.4352115772028], [-0.0202217290357307, 51.434332651687]]]}, "properties": {"MSOA21CD": "E02000681", "MSOA21NM": "Lewisham 029"}}, {"type": "Feature", "geometry": {"type": "Polygon", "coordinates": [[[0.00242829450825507, 51.436747631265], [0.00308320545588149, 51.4357334969633], [0.00441181193556824, 51.4360579613021], [0.00487709252545494, 51.4355175398313], [0.00553169341020751, 51.4355139901838], [0.00566253972776294, 51.4352974503409], [0.00673877086347401, 51.4355046848445], [0.00740474201987714, 51.434436029854], [0.00519953410640599, 51.4339136729645], [0.00403427090197553, 51.4338211644852], [0.00366922610803234, 51.4340005597378], [0.00311372915039941, 51.4334788017791], [0.00330207365736181, 51.4331130083667], [0.00245491152914388, 51.4326062516881], [0.0010387542480276, 51.4322931224866], [0.0010406570188072, 51.4318357379631], [-0.00212140279683383, 51.4310331400942], [-0.00156846785606543, 51.4294301076855], [-0.00213702315662615, 51.4291861590112], [-0.00173702699297592, 51.4288209453385], [-0.000502659518233576, 51.4263542361333], [-0.00155454469801589, 51.4261178151717], [-0.00517946128146766, 51.4260897889158], [-0.00618951455634842, 51.425973730763], [-0.00696984857466426, 51.426268134622], [-0.0100671653216476, 51.4268977760984], [-0.0111394626354772, 51.4274476157176], [-0.0116111187033982, 51.4277282864554], [-0.0131066611188175, 51.4285807079295], [-0.0136430498549065, 51.4282245930286], [-0.0166939454938249, 51.4268817739931], [-0.0174425990002821, 51.4265592710517], [-0.0176960312276989, 51.4271745346634], [-0.0179937797134108, 51.4289908598525], [-0.0181521077620252, 51.4297961341484], [-0.0192312740739095, 51.4327653477332], [-0.0192345636757237, 51.4327727172032], [-0.0175648018115581, 51.4331989986207], [-0.016870010439083, 51.4333498527107], [-0.0166375452478967, 51.4329144888289], [-0.015568366283569, 51.433150739705], [-0.0125064218190683, 51.433801415262], [-0.0118744608670635, 51.4339515148705], [-0.00876992389960375, 51.4346269734174], [-0.00840478093153052, 51.4347073838757], [-0.00392155661562352, 51.4356802508496], [-0.00358198950445142, 51.4357531409272], [0.000718970668306193, 51.4363985889574], [0.00191204166682484, 51.4366560926781], [0.00242829450825507, 51.436747631265]]]}, "properties": {"MSOA21CD": "E02000682", "MSOA21NM": "Lewisham 030"}}, {"type": "Feature", "geometry": {"type": "Polygon", "coordinates": [[[0.0287459651627334, 51.436185712713], [0.0289669734953442, 51.4354924698107], [0.0290088725049331, 51.4343915358959], [0.0286072352178423, 51.4340535241225], [0.0298934315399625, 51.4333365875407], [0.0313896575574406, 51.4325997624562], [0.0311927265338023, 51.4320727269863], [0.0316493335071656, 51.4325946874148], [0.0324715403502663, 51.4318980934586], [0.0333007375798573, 51.4322626898799], [0.0337721200626558, 51.4317697313466], [0.0377024270366413, 51.4333788247285], [0.0375335035518306, 51.4320120799055], [0.0375944078257061, 51.4313469472739], [0.0377179875517113, 51.4308989923802], [0.0382780949622386, 51.42907758929], [0.0382953961700005, 51.427955239753], [0.0378713114925038, 51.4277263292743], [0.0384318572834185, 51.4275872439906], [0.0384450805076989, 51.427255252039], [0.0388832864014839, 51.4260763291661], [0.038847379058361, 51.4246916589517], [0.0362122196732604, 51.4223653003071], [0.0345916451489646, 51.4233934910283], [0.0338850760413026, 51.4239676600075], [0.0338504814382483, 51.4239988777062], [0.0312811275122689, 51.425457426168], [0.0311183189674592, 51.425533216589], [0.0273359841807887, 51.4280010652473], [0.0268465487242438, 51.4282919267251], [0.0254905674123141, 51.4289309304473], [0.0246888142455187, 51.4287274363624], [0.0243999526000269, 51.4285618539169], [0.0243490102276037, 51.4285324990053], [0.0209404213956582, 51.4268175432027], [0.0209341881442663, 51.426818745116], [0.0212821620660402, 51.4279808886894], [0.0212900954177715, 51.4291529048756], [0.0212598598980526, 51.4306628542291], [0.0212567665886347, 51.4309942096679], [0.0210570576860101, 51.4313929462766], [0.0213167265639746, 51.4317591980714], [0.0213208044855765, 51.4315253001666], [0.0228038662072386, 51.4315536798865], [0.0232419184010619, 51.4315659058555], [0.0250456628422832, 51.4315897569481], [0.0248320337390208, 51.4318552250953], [0.0258108293877876, 51.4329783469722], [0.0255594462249088, 51.4334353819496], [0.0249545298103569, 51.4334167473589], [0.0242771992665655, 51.4341076291304], [0.0236933380377851, 51.4341013423111], [0.0236169158242556, 51.4343482765787], [0.0242415511653103, 51.4351406456418], [0.0239261884641493, 51.4356733997536], [0.0251962142405714, 51.4354491841264], [0.0249724392472742, 51.4360193258348], [0.0253792453942382, 51.4358419464178], [0.0272829257465191, 51.436578153804], [0.0286663916989731, 51.4364246206358], [0.0287459651627334, 51.436185712713]]]}, "properties": {"MSOA21CD": "E02000683", "MSOA21NM": "Lewisham 031"}}, {"type": "Feature", "geometry": {"type": "Polygon", "coordinates": [[[-0.0530007527356077, 51.4315814762562], [-0.0531944579934289, 51.4302824842141], [-0.0533361691813595, 51.4298050949225], [-0.052387147500697, 51.4296850482017], [-0.0524542156050241, 51.4293107455975], [-0.0514332902491348, 51.4291110048167], [-0.0519737191574503, 51.4285873352011], [-0.0511143332587258, 51.428287510588], [-0.0513245718654597, 51.4271964707377], [-0.0514694201304744, 51.4265040434531], [-0.0514775384432955, 51.4264640071342], [-0.0515574827908995, 51.4261502609424], [-0.0527343220442208, 51.4262767450722], [-0.0547524113915943, 51.4266037564074], [-0.054865094175125, 51.4263545815027], [-0.0560299984264425, 51.4263100682491], [-0.056897091287723, 51.4261258093777], [-0.0566674365630858, 51.4271514179242], [-0.0570344702700261, 51.4272535681964], [-0.0574464660737045, 51.4268575004928], [-0.058815617104497, 51.4274723427919], [-0.0600405107826631, 51.4262158383332], [-0.0614317311946472, 51.4248019914555], [-0.0622128200972973, 51.4250991797618], [-0.0627021637666338, 51.4251897020074], [-0.0643656802190551, 51.4253113915472], [-0.0644980366115652, 51.4249874420435], [-0.064905694815756, 51.4252143262507], [-0.0659498005981035, 51.4251451611209], [-0.068056379189156, 51.4259231417629], [-0.0686369711015933, 51.425994242143], [-0.0688482996671617, 51.4256054777562], [-0.0701983009042822, 51.4260751098546], [-0.0706388664600108, 51.4262015426198], [-0.0721712636904362, 51.4262754829317], [-0.073918506076508, 51.426151164638], [-0.0741915920961118, 51.4271880581817], [-0.0750686721221987, 51.4287939256354], [-0.0746719938449232, 51.4299895422075], [-0.0728335964200672, 51.4320877671622], [-0.0718511930811099, 51.4316937560413], [-0.0699974284471318, 51.4317274933402], [-0.0688919526103056, 51.4314327796192], [-0.0664756506539168, 51.4310515343987], [-0.0660146210362453, 51.4309825205469], [-0.0657777831816935, 51.4309562089922], [-0.0652264630269964, 51.430899459451], [-0.0626675039382237, 51.4306501838116], [-0.0614287651615414, 51.4305502075976], [-0.0604496075563057, 51.4307368620429], [-0.0594443152342868, 51.4308431284533], [-0.0588553232527159, 51.4310693529168], [-0.0587396243948657, 51.4311238355785], [-0.0561269381369623, 51.4329609296738], [-0.0557420972202082, 51.4331388795286], [-0.0530749300902771, 51.4337295319832], [-0.0530255285752474, 51.4333318211925], [-0.0529768528204167, 51.4323960297704], [-0.0530007527356077, 51.4315814762562]]]}, "properties": {"MSOA21CD": "E02000685", "MSOA21NM": "Lewisham 033"}}, {"type": "Feature", "geometry": {"type": "Polygon", "coordinates": [[[-0.0216261384399583, 51.4299978708738], [-0.0210128243318494, 51.4292639728332], [-0.0207391272958364, 51.4293470158412], [-0.0203492677427554, 51.4301673742981], [-0.0201298323557482, 51.42907523489], [-0.0198147580030409, 51.4289576475004], [-0.0191935453295149, 51.4294019698553], [-0.0191105328136245, 51.428946274488], [-0.0179937797134108, 51.4289908598525], [-0.0176960312276989, 51.4271745346634], [-0.0174425990002821, 51.4265592710517], [-0.0149246124791856, 51.4237635601975], [-0.0112166556070594, 51.4211918116838], [-0.00974863257518954, 51.4198707423797], [-0.00866760732658817, 51.4178641374468], [-0.00768282557602359, 51.4145297935412], [-0.0105188106653289, 51.4135495835593], [-0.0135877468205132, 51.4136211860472], [-0.0142360962086914, 51.41365665816], [-0.0144628186098378, 51.414248609514], [-0.0142814640060982, 51.4151181629168], [-0.0179630651210593, 51.415079144447], [-0.0178211321995018, 51.4157422203901], [-0.0209749299537837, 51.4160287681274], [-0.0213879354771345, 51.4162674760603], [-0.0220375327700992, 51.4166436733053], [-0.0217119171479454, 51.4172909030923], [-0.0225299152477929, 51.4175409078289], [-0.021936345766284, 51.417861205154], [-0.0207689604188159, 51.419904043018], [-0.0216057930766396, 51.4204728640294], [-0.0209350503014717, 51.4209185187775], [-0.0214193590592737, 51.4212524409545], [-0.0221807975920028, 51.4217774132754], [-0.0225255242476146, 51.4215804917347], [-0.0238327298995798, 51.4227561001265], [-0.027800350767284, 51.4244489465318], [-0.0278072927448761, 51.4246305575767], [-0.0294608775052447, 51.4253842141495], [-0.0303457386147323, 51.4257188352457], [-0.0319669330327683, 51.4255505505324], [-0.0318551102864538, 51.4247241570849], [-0.0333478156058473, 51.424641863669], [-0.0342171700232669, 51.424772812444], [-0.0342355972478888, 51.4250978434535], [-0.0351205948979955, 51.4250365913107], [-0.0374655597174054, 51.4250197507891], [-0.0384437059426343, 51.4239068185732], [-0.0398826929072194, 51.4243137944081], [-0.0404079942937633, 51.4263732724121], [-0.0404033077773527, 51.4264125559215], [-0.0405114403706338, 51.4271920932844], [-0.0395023704273063, 51.4277094597127], [-0.0373401741013791, 51.4286818283595], [-0.037105293364192, 51.429127547394], [-0.0373699576227691, 51.4293342031415], [-0.0375974214419706, 51.4307365132118], [-0.0353258431470621, 51.4306805238951], [-0.0340296963724852, 51.4307424158779], [-0.0342379177070226, 51.4297581831825], [-0.0334788207195001, 51.429156682427], [-0.0342322966285536, 51.4283599572671], [-0.0318925171271958, 51.4279070369298], [-0.0314927285058643, 51.4278341115574], [-0.0319397950657293, 51.4291640635401], [-0.0313031064486257, 51.4300512425108], [-0.0295529211389357, 51.4292227021976], [-0.0295453392872585, 51.4292029793127], [-0.0293860946579629, 51.4288603365077], [-0.0283843758124727, 51.4290314038939], [-0.0275005024818526, 51.4285862208345], [-0.0267661505664219, 51.4286077596405], [-0.0267052247798094, 51.4290143005209], [-0.025333025458546, 51.4293135860348], [-0.0251339440857774, 51.429662556157], [-0.0241934964115062, 51.4296079811211], [-0.0240709116744453, 51.4302024128707], [-0.0238149775313126, 51.4302645391945], [-0.0231244557113185, 51.4309756299044], [-0.02214207641946, 51.4311406298413], [-0.0216261384399583, 51.4299978708738]]]}, "properties": {"MSOA21CD": "E02000686", "MSOA21NM": "Lewisham 034"}}, {"type": "Feature", "geometry": {"type": "Polygon", "coordinates": [[[-0.0407393138545301, 51.4289886469818], [-0.0395023704273063, 51.4277094597127], [-0.0405114403706338, 51.4271920932844], [-0.0404033077773527, 51.4264125559215], [-0.0404079942937633, 51.4263732724121], [-0.0398826929072194, 51.4243137944081], [-0.0409820294757795, 51.4243242337986], [-0.0416538532419808, 51.4238908106027], [-0.0415365421754959, 51.4236343784227], [-0.0428059712159251, 51.423226876325], [-0.0429703445000017, 51.4234191735082], [-0.0437767939611858, 51.4232078153945], [-0.0436476668121471, 51.4229590567816], [-0.0452197972163799, 51.4225905470676], [-0.0459603228880709, 51.422443951584], [-0.0460247778977194, 51.4227613469166], [-0.0472162627339417, 51.4227488841499], [-0.0493445138683023, 51.4227558522724], [-0.0512317496165926, 51.4225204622919], [-0.0517537445702199, 51.4225202032912], [-0.0518384069271218, 51.4235744734428], [-0.0525299860137238, 51.4236168629664], [-0.0539195341464815, 51.4236735341627], [-0.0544124705346933, 51.4236936194922], [-0.0548507107871719, 51.4236102125428], [-0.0551237078362905, 51.4230029867984], [-0.0564242391565913, 51.422965404834], [-0.0573629463894797, 51.4230533408955], [-0.0587124080530631, 51.423522230091], [-0.0603826321756978, 51.4241109071311], [-0.0614003942646925, 51.4245104627306], [-0.0614317311946472, 51.4248019914555], [-0.0600405107826631, 51.4262158383332], [-0.058815617104497, 51.4274723427919], [-0.0574464660737045, 51.4268575004928], [-0.0570344702700261, 51.4272535681964], [-0.0566674365630858, 51.4271514179242], [-0.056897091287723, 51.4261258093777], [-0.0560299984264425, 51.4263100682491], [-0.054865094175125, 51.4263545815027], [-0.0547524113915943, 51.4266037564074], [-0.0527343220442208, 51.4262767450722], [-0.0515574827908995, 51.4261502609424], [-0.0514775384432955, 51.4264640071342], [-0.0514694201304744, 51.4265040434531], [-0.0513245718654597, 51.4271964707377], [-0.0511143332587258, 51.428287510588], [-0.0519737191574503, 51.4285873352011], [-0.0514332902491348, 51.4291110048167], [-0.048683704347492, 51.4287988134759], [-0.0467621838611774, 51.4285963194157], [-0.0467173544308101, 51.4287215941384], [-0.0465773869775699, 51.4295501235231], [-0.0457806663266455, 51.4295623457321], [-0.0429471680298589, 51.4296974698949], [-0.0422456433071935, 51.429988857408], [-0.0413956967366038, 51.4303535269324], [-0.0407580312308679, 51.4290256149185], [-0.0407393138545301, 51.4289886469818]]]}, "properties": {"MSOA21CD": "E02000687", "MSOA21NM": "Lewisham 035"}}, {"type": "Feature", "geometry": {"type": "Polygon", "coordinates": [[[0.0212598598980526, 51.4306628542291], [0.0212900954177715, 51.4291529048756], [0.0212821620660402, 51.4279808886894], [0.0209341881442663, 51.426818745116], [0.0204462947706232, 51.4268462592949], [0.0184307521762999, 51.4270129630469], [0.0162207778709989, 51.4262559501726], [0.0147007104861648, 51.4261874196512], [0.0146431676818885, 51.4261855531807], [0.0141332458112814, 51.4261738507988], [0.0144215577339249, 51.4252324420575], [0.0135389968073346, 51.4250851036458], [0.0133762730843747, 51.4247085803342], [0.0116735764926873, 51.4237536094515], [0.0110106596937634, 51.4234900213848], [0.0107072009806489, 51.4232615249491], [0.00999160365669171, 51.4224838048241], [0.00811627925423703, 51.4230391213664], [0.00789324352449288, 51.4225636683267], [0.00676976468318243, 51.422967374727], [0.00677789464539366, 51.4233797679347], [0.00517053923744493, 51.424292752349], [0.00383400045052293, 51.4241413744957], [0.00310802166183751, 51.4252367069318], [0.00482414438601079, 51.4252417983837], [0.00499771200435639, 51.4255294116478], [0.00227467670730053, 51.4259707012423], [0.00224917092304289, 51.426025608733], [0.0017078202984293, 51.4261916601695], [0.00197557072556015, 51.4265866438408], [0.00141641107176417, 51.4267440390175], [0.00170500714975425, 51.4270184268126], [0.00126633628512131, 51.4272520598655], [0.000294061547316034, 51.4271053668674], [-0.000196137074226196, 51.4273461143103], [0.00028563142710391, 51.4281327341414], [-0.000904090202666317, 51.4286148991793], [-0.00156846785606543, 51.4294301076855], [0.00486350399515468, 51.4303973328137], [0.0051356769038662, 51.4297373192904], [0.00874764758227842, 51.430210427401], [0.0109039780924192, 51.4305058578816], [0.0110351484059294, 51.4305241123913], [0.0117560930633268, 51.430616703176], [0.0127262622340346, 51.4307650241302], [0.0161643865301373, 51.4317177472298], [0.016171876191835, 51.4317194458104], [0.0192132161349139, 51.4326431549032], [0.0210570576860101, 51.4313929462766], [0.0212567665886347, 51.4309942096679], [0.0212598598980526, 51.4306628542291]]]}, "properties": {"MSOA21CD": "E02006783", "MSOA21NM": "Lewisham 037"}}, {"type": "Feature", "geometry": {"type": "Polygon", "coordinates": [[[-0.000196137074226196, 51.4273461143103], [0.000294061547316034, 51.4271053668674], [0.00126633628512131, 51.4272520598655], [0.00170500714975425, 51.4270184268126], [0.00141641107176417, 51.4267440390175], [0.00197557072556015, 51.4265866438408], [0.0017078202984293, 51.4261916601695], [0.00224917092304289, 51.426025608733], [0.00227467670730053, 51.4259707012423], [0.00499771200435639, 51.4255294116478], [0.00482414438601079, 51.4252417983837], [0.00310802166183751, 51.4252367069318], [0.00383400045052293, 51.4241413744957], [0.00517053923744493, 51.424292752349], [0.00677789464539366, 51.4233797679347], [0.00676976468318243, 51.422967374727], [0.00789324352449288, 51.4225636683267], [0.00752456397623338, 51.4217665562572], [0.0073744319046951, 51.4213786418634], [0.00687419973028137, 51.4214940437727], [0.00677351605741903, 51.4209565468724], [0.00632370256183806, 51.4210141936384], [0.00604346518003431, 51.4205495370174], [0.00525390982762159, 51.4193162910375], [0.00568010357781685, 51.4185283185451], [0.00351855588525931, 51.4174046838294], [0.00222850255596848, 51.4182460890455], [0.0017540211168705, 51.4185573385321], [0.000534433139063031, 51.4180035265636], [0.000109086160898451, 51.4176942955806], [4.95733706703386e-05, 51.4176633320704], [-0.000316668689249068, 51.4164485122311], [-0.000835156454936487, 51.4160729234247], [-0.000824653306334501, 51.4158894937257], [-0.00364831756378616, 51.4156844500643], [-0.00337756803011669, 51.4150605450667], [-0.00500187432194508, 51.4146797446381], [-0.0056066293315724, 51.4157634018734], [-0.00653875912391611, 51.4159904553384], [-0.00662321324233385, 51.4146695719146], [-0.00768282557602359, 51.4145297935412], [-0.00866760732658817, 51.4178641374468], [-0.00974863257518954, 51.4198707423797], [-0.0112166556070594, 51.4211918116838], [-0.0149246124791856, 51.4237635601975], [-0.0174425990002821, 51.4265592710517], [-0.0166939454938249, 51.4268817739931], [-0.0136430498549065, 51.4282245930286], [-0.0131066611188175, 51.4285807079295], [-0.0116111187033982, 51.4277282864554], [-0.0111394626354772, 51.4274476157176], [-0.0100671653216476, 51.4268977760984], [-0.00696984857466426, 51.426268134622], [-0.00618951455634842, 51.425973730763], [-0.00517946128146766, 51.4260897889158], [-0.00155454469801589, 51.4261178151717], [-0.000502659518233576, 51.4263542361333], [-0.00173702699297592, 51.4288209453385], [-0.00213702315662615, 51.4291861590112], [-0.00156846785606543, 51.4294301076855], [-0.000904090202666317, 51.4286148991793], [0.00028563142710391, 51.4281327341414], [-0.000196137074226196, 51.4273461143103]]]}, "properties": {"MSOA21CD": "E02006784", "MSOA21NM": "Lewisham 038"}}, {"type": "Feature", "geometry": {"type": "Polygon", "coordinates": [[[-0.0370365757008797, 51.4820510801262], [-0.0361521068165027, 51.4814516011877], [-0.0357166578085934, 51.4808868456381], [-0.0349862654225512, 51.4797866562137], [-0.0346288350763844, 51.4792424127218], [-0.031044199435859, 51.4805328869062], [-0.0304415157722607, 51.4803050280202], [-0.0299179356448476, 51.480112316497], [-0.0287605216321082, 51.4797081648235], [-0.0281055308060605, 51.4794712863711], [-0.0269597428045631, 51.4790861357905], [-0.0260847900923868, 51.4788405595163], [-0.0229004478273948, 51.4785069922118], [-0.0230250796069056, 51.4792883825843], [-0.0230454954338803, 51.4796285515317], [-0.0229676632683245, 51.4796386504349], [-0.0203417800753565, 51.4799357573204], [-0.0200722896439906, 51.4803380293455], [-0.0194576046320267, 51.4805434804843], [-0.0187010529841048, 51.4807839582148], [-0.0178490120489642, 51.4808804629156], [-0.0170867363950218, 51.4804170618631], [-0.0171015253255576, 51.4803948054465], [-0.0191663595931525, 51.4796505726847], [-0.0193178520641801, 51.4786664915948], [-0.019418268484612, 51.478014167085], [-0.0198397473831654, 51.4780484483137], [-0.0195771199990109, 51.4778434210629], [-0.0192881290301847, 51.4776178089487], [-0.0193876311137883, 51.4771895403797], [-0.0200508989206046, 51.4771306938581], [-0.020556103841502, 51.4767227422037], [-0.020594270939253, 51.4766962058495], [-0.0207641601533707, 51.4765576322916], [-0.0211193814606439, 51.4762678871309], [-0.022803521331492, 51.4759289538253], [-0.0209231024238186, 51.4761348589684], [-0.0209534701127395, 51.475676500117], [-0.0225282015715543, 51.4755924702616], [-0.0222601099783266, 51.4754550310987], [-0.022679340260752, 51.4753660685135], [-0.0225114753848678, 51.4753546100586], [-0.0223279187946179, 51.4753420798922], [-0.022530131784506, 51.4752933720982], [-0.0229038184108243, 51.4750820849964], [-0.0227784507468356, 51.474464091358], [-0.0235014629709992, 51.4745535654024], [-0.0261809934379031, 51.4749561208679], [-0.0262960067859511, 51.4749720581131], [-0.0281119951105693, 51.4752497914768], [-0.0287442020800351, 51.4753588818867], [-0.0322621576165657, 51.4758728484797], [-0.0325456151728052, 51.475896321968], [-0.0341365233340043, 51.4758329491888], [-0.036368916329434, 51.4756833514442], [-0.0402486289185602, 51.4749009905979], [-0.0405917516095823, 51.4748217403919], [-0.0409792434098128, 51.4757371647446], [-0.039604955628937, 51.4762870025043], [-0.0394897449059369, 51.4759125344928], [-0.0392128592620847, 51.4759888378099], [-0.0387955407724666, 51.4759818539024], [-0.0369844285194921, 51.4762386891892], [-0.0373268044237732, 51.4767531814777], [-0.0379036209256443, 51.4773180181121], [-0.0387320991885163, 51.4772294492818], [-0.0396814220845217, 51.4780587344965], [-0.0400634310827469, 51.4779815084643], [-0.0402719721889011, 51.4781558616194], [-0.0396910604245653, 51.4786047834346], [-0.040272520263655, 51.4790174365455], [-0.0407306975289893, 51.4797850798914], [-0.0404499875250358, 51.4800395967868], [-0.0410579509164869, 51.4800490971794], [-0.04139003547975, 51.4808848553244], [-0.041606014346716, 51.4812402584896], [-0.0421452539381107, 51.4811548346754], [-0.0419644207428209, 51.4803334588585], [-0.042656616482685, 51.4797752594386], [-0.0427070911789619, 51.4816270850619], [-0.0440296090631256, 51.4815460187833], [-0.045983914327117, 51.484006705157], [-0.0433887416764531, 51.4840733682999], [-0.0416597660779007, 51.4827794568465], [-0.0387916742602404, 51.4822416557912], [-0.0370365757008797, 51.4820510801262]]]}, "properties": {"MSOA21CD": "E02006798", "MSOA21NM": "Lewisham 039"}}, {"type": "Feature", "geometry": {"type": "Polygon", "coordinates": [[[-0.0171150966727097, 51.4692979061189], [-0.0169237588378492, 51.4690557242196], [-0.0165331317188498, 51.4692276270803], [-0.0160789086250719, 51.4687185137198], [-0.0150647906804202, 51.4680359022365], [-0.0146105014250256, 51.4682418474339], [-0.0140163901162026, 51.4685024290134], [-0.013104583069785, 51.4689358176637], [-0.0122878428998446, 51.4681192221853], [-0.012107501585367, 51.4679480920214], [-0.0109487987929431, 51.4659871692725], [-0.0110877211072616, 51.4653903344393], [-0.0112230697041404, 51.4650135693542], [-0.0111271533374215, 51.4643467776035], [-0.0105464350988663, 51.4633010138825], [-0.0101859301844169, 51.462731218105], [-0.0102106662179562, 51.4623230295422], [-0.011333670971189, 51.4623051878476], [-0.0131966996143825, 51.4612090040225], [-0.0127287452864797, 51.4631635431989], [-0.0131070663023953, 51.4629416593786], [-0.0132731453026614, 51.4626067136592], [-0.0154713646347602, 51.4603334185318], [-0.0161253139435632, 51.4602506033637], [-0.0165408056317665, 51.4622395141808], [-0.0169333304146466, 51.4634294417444], [-0.0169560772667698, 51.4635001334585], [-0.0170613571254411, 51.4638273283502], [-0.0174678791864529, 51.4650773418424], [-0.0178078867152323, 51.4659819038568], [-0.0191504046006723, 51.4675650666603], [-0.0198324807156523, 51.4680527218716], [-0.0199649336735992, 51.4683106341401], [-0.0171150966727097, 51.4692979061189]]]}, "properties": {"MSOA21CD": "E02007008", "MSOA21NM": "Lewisham 040"}}, {"type": "Feature", "geometry": {"type": "Polygon", "coordinates": [[[-0.0127287452864797, 51.4631635431989], [-0.0131966996143825, 51.4612090040225], [-0.011333670971189, 51.4623051878476], [-0.0102106662179562, 51.4623230295422], [-0.0101859301844169, 51.462731218105], [-0.00846279513710459, 51.4622348320889], [-0.00754036831962585, 51.4625755482083], [-0.00649488369341648, 51.4624238933855], [-0.00498248292625748, 51.462074501152], [-0.00493368701968231, 51.4620561800385], [-0.00337052958998468, 51.46194650365], [-0.00290684160318783, 51.4618420168953], [-0.0018364743063321, 51.4615918697428], [0.0002943999065575, 51.4621467511728], [0.00108624005803925, 51.4606195489361], [-0.00088934048831309, 51.4603450619403], [-0.00198441387660888, 51.4601489367913], [-0.00211990872451524, 51.4601123220945], [-0.00375683895338505, 51.459601298172], [-0.00312814346035374, 51.4591029501036], [-0.00345234576095472, 51.4589447635612], [-0.00475747816388347, 51.4583143266389], [-0.00514577650055334, 51.4582788269862], [-0.00535320449041858, 51.4586383524261], [-0.0059285460103244, 51.4585246925174], [-0.00683321603199789, 51.4580325946615], [-0.00685072157107972, 51.4580279370864], [-0.00838183930955682, 51.4577993271513], [-0.00843539425652037, 51.4566684827244], [-0.00886351502751631, 51.4566992676052], [-0.00669312839831933, 51.4555786843559], [-0.00558539342832868, 51.4550092219703], [-0.00278367385193995, 51.4533099051115], [-0.0024758720646853, 51.4530782867537], [-0.00284400682878966, 51.4529609579506], [-0.00268426268357672, 51.4526902691259], [-0.00347356461960525, 51.4526142911561], [-0.00455293402622823, 51.4526706446036], [-0.0051352504680844, 51.4521593378974], [-0.00620593047753048, 51.4518986428126], [-0.0063318783876493, 51.4513253672309], [-0.00746208546647009, 51.4527252441519], [-0.00844567918073455, 51.4540131599764], [-0.00886958681816776, 51.4538940523386], [-0.00986231580088764, 51.4536823516618], [-0.0101213069316626, 51.4539174258125], [-0.011085941690366, 51.453909776001], [-0.011347281073803, 51.4534868399454], [-0.0105258486649938, 51.4526362691852], [-0.010276777329508, 51.4520616637106], [-0.0109461284143161, 51.4517022320314], [-0.013067402323633, 51.451698328552], [-0.0141011713263047, 51.4519247037554], [-0.0145273985957585, 51.4518841313335], [-0.0141368728723033, 51.451875775557], [-0.0141517509683924, 51.4518363266887], [-0.0142940776124475, 51.4514589382463], [-0.0159459385888218, 51.4515743827359], [-0.0162734627011097, 51.452010482439], [-0.0167454730329427, 51.4520303690252], [-0.0167002305582383, 51.4522014998309], [-0.0180217032106926, 51.4522813056328], [-0.0201630672846068, 51.4526602664815], [-0.0220148683382623, 51.4520317623121], [-0.0197687605063509, 51.4552114556821], [-0.0196038618241909, 51.4554553172879], [-0.018820976725418, 51.4565837052753], [-0.0168955359233366, 51.4589461736592], [-0.0164706551487933, 51.4594187855763], [-0.0161253139435632, 51.4602506033637], [-0.0154713646347602, 51.4603334185318], [-0.0132731453026614, 51.4626067136592], [-0.0131070663023953, 51.4629416593786], [-0.0127287452864797, 51.4631635431989]]]}, "properties": {"MSOA21CD": "E02007009", "MSOA21NM": "Lewisham 041"}}]}